[
    {
      "Pincode": "412217",
      "Logistic's Name": "Shadowfax SND",
      "City": "WAGHOLI",
      "state": "Maharashtra",
      "SFX status": "Active"
    },
    {
      "Pincode": "411017",
      "Logistic's Name": "Shadowfax SND",
      "City": "PUNE",
      "state": "Maharashtra",
      "SFX status": "Active"
    },
    {
      "Pincode": "412113",
      "Logistic's Name": "Shadowfax SND",
      "City": "BHOR",
      "state": "Maharashtra",
      "SFX status": "Active"
    },
    {
      "Pincode": "411060",
      "Logistic's Name": "Shadowfax SND",
      "City": "PUNE",
      "state": "Maharashtra",
      "SFX status": "Active"
    },
    {
      "Pincode": "411040",
      "Logistic's Name": "Shadowfax SND",
      "City": "PUNE",
      "state": "Maharashtra",
      "SFX status": "Active"
    },
    {
      "Pincode": "700160",
      "Logistic's Name": "Shadowfax SND",
      "City": "KOLKATA",
      "state": "West Bengal",
      "SFX status": "Active"
    },
    {
      "Pincode": "400059",
      "Logistic's Name": "Shadowfax SND",
      "City": "MUMBAI",
      "state": "Maharashtra",
      "SFX status": "Active"
    },
    {
      "Pincode": "600037",
      "Logistic's Name": "Shadowfax SND",
      "City": "CHENNAI",
      "state": "Tamil Nadu",
      "SFX status": "Active"
    },
    {
      "Pincode": "741235",
      "Logistic's Name": "Shadowfax SND",
      "City": "KALYANI",
      "state": "West Bengal",
      "SFX status": "Active"
    },
    {
      "Pincode": "411006",
      "Logistic's Name": "Shadowfax SND",
      "City": "PUNE",
      "state": "Maharashtra",
      "SFX status": "Active"
    },
    {
      "Pincode": "412207",
      "Logistic's Name": "Shadowfax SND",
      "City": "WAGHOLI",
      "state": "Maharashtra",
      "SFX status": "Active"
    },
    {
      "Pincode": "411031",
      "Logistic's Name": "Shadowfax SND",
      "City": "PUNE",
      "state": "Maharashtra",
      "SFX status": "Active"
    },
    {
      "Pincode": "411015",
      "Logistic's Name": "Shadowfax SND",
      "City": "PUNE",
      "state": "Maharashtra",
      "SFX status": "Active"
    },
    {
      "Pincode": "411048",
      "Logistic's Name": "Shadowfax SND",
      "City": "PUNE",
      "state": "Maharashtra",
      "SFX status": "Active"
    },
    {
      "Pincode": "411051",
      "Logistic's Name": "Shadowfax SND",
      "City": "PUNE",
      "state": "Maharashtra",
      "SFX status": "Active"
    },
    {
      "Pincode": "411041",
      "Logistic's Name": "Shadowfax SND",
      "City": "PUNE",
      "state": "Maharashtra",
      "SFX status": "Active"
    },
    {
      "Pincode": "411010",
      "Logistic's Name": "Shadowfax SND",
      "City": "PUNE",
      "state": "Maharashtra",
      "SFX status": "Active"
    },
    {
      "Pincode": "412114",
      "Logistic's Name": "Shadowfax SND",
      "City": "PUNE",
      "state": "Maharashtra",
      "SFX status": "Active"
    },
    {
      "Pincode": "411044",
      "Logistic's Name": "Shadowfax SND",
      "City": "PUNE",
      "state": "Maharashtra",
      "SFX status": "Active"
    },
    {
      "Pincode": "411062",
      "Logistic's Name": "Shadowfax SND",
      "City": "PUNE",
      "state": "Maharashtra",
      "SFX status": "Active"
    },
    {
      "Pincode": "411019",
      "Logistic's Name": "Shadowfax SND",
      "City": "PUNE",
      "state": "Maharashtra",
      "SFX status": "Active"
    },
    {
      "Pincode": "411061",
      "Logistic's Name": "Shadowfax SND",
      "City": "PUNE",
      "state": "Maharashtra",
      "SFX status": "Active"
    },
    {
      "Pincode": "411027",
      "Logistic's Name": "Shadowfax SND",
      "City": "PUNE",
      "state": "Maharashtra",
      "SFX status": "Active"
    },
    {
      "Pincode": "412216",
      "Logistic's Name": "Shadowfax SND",
      "City": "WAGHOLI",
      "state": "Maharashtra",
      "SFX status": "Active"
    },
    {
      "Pincode": "412101",
      "Logistic's Name": "Shadowfax SND",
      "City": "TALEGAON",
      "state": "Maharashtra",
      "SFX status": "Active"
    },
    {
      "Pincode": "411037",
      "Logistic's Name": "Shadowfax SND",
      "City": "PUNE",
      "state": "Maharashtra",
      "SFX status": "Active"
    },
    {
      "Pincode": "411043",
      "Logistic's Name": "Shadowfax SND",
      "City": "PUNE",
      "state": "Maharashtra",
      "SFX status": "Active"
    },
    {
      "Pincode": "411009",
      "Logistic's Name": "Shadowfax SND",
      "City": "PUNE",
      "state": "Maharashtra",
      "SFX status": "Active"
    },
    {
      "Pincode": "411002",
      "Logistic's Name": "Shadowfax SND",
      "City": "PUNE",
      "state": "Maharashtra",
      "SFX status": "Active"
    },
    {
      "Pincode": "411030",
      "Logistic's Name": "Shadowfax SND",
      "City": "PUNE",
      "state": "Maharashtra",
      "SFX status": "Active"
    },
    {
      "Pincode": "412110",
      "Logistic's Name": "Shadowfax SND",
      "City": "WAGHOLI",
      "state": "Maharashtra",
      "SFX status": "Active"
    },
    {
      "Pincode": "412307",
      "Logistic's Name": "Shadowfax SND",
      "City": "PUNE",
      "state": "Maharashtra",
      "SFX status": "Active"
    },
    {
      "Pincode": "411036",
      "Logistic's Name": "Shadowfax SND",
      "City": "PUNE",
      "state": "Maharashtra",
      "SFX status": "Active"
    },
    {
      "Pincode": "411032",
      "Logistic's Name": "Shadowfax SND",
      "City": "PUNE",
      "state": "Maharashtra",
      "SFX status": "Active"
    },
    {
      "Pincode": "411047",
      "Logistic's Name": "Shadowfax SND",
      "City": "PUNE",
      "state": "Maharashtra",
      "SFX status": "Active"
    },
    {
      "Pincode": "410613",
      "Logistic's Name": "Shadowfax SND",
      "City": "PUNE",
      "state": "Maharashtra",
      "SFX status": "Active"
    },
    {
      "Pincode": "411029",
      "Logistic's Name": "Shadowfax SND",
      "City": "PUNE",
      "state": "Maharashtra",
      "SFX status": "Active"
    },
    {
      "Pincode": "411050",
      "Logistic's Name": "Shadowfax SND",
      "City": "PUNE",
      "state": "Maharashtra",
      "SFX status": "Active"
    },
    {
      "Pincode": "411107",
      "Logistic's Name": "Shadowfax SND",
      "City": "PUNE",
      "state": "Maharashtra",
      "SFX status": "Active"
    },
    {
      "Pincode": "412001",
      "Logistic's Name": "Shadowfax SND",
      "City": "PUNE",
      "state": "Maharashtra",
      "SFX status": "Active"
    },
    {
      "Pincode": "411004",
      "Logistic's Name": "Shadowfax SND",
      "City": "PUNE",
      "state": "Maharashtra",
      "SFX status": "Active"
    },
    {
      "Pincode": "411038",
      "Logistic's Name": "Shadowfax SND",
      "City": "PUNE",
      "state": "Maharashtra",
      "SFX status": "Active"
    },
    {
      "Pincode": "411024",
      "Logistic's Name": "Shadowfax SND",
      "City": "PUNE",
      "state": "Maharashtra",
      "SFX status": "Active"
    },
    {
      "Pincode": "411046",
      "Logistic's Name": "Shadowfax SND",
      "City": "PUNE",
      "state": "Maharashtra",
      "SFX status": "Active"
    },
    {
      "Pincode": "411013",
      "Logistic's Name": "Shadowfax SND",
      "City": "PUNE",
      "state": "Maharashtra",
      "SFX status": "Active"
    },
    {
      "Pincode": "411028",
      "Logistic's Name": "Shadowfax SND",
      "City": "PUNE",
      "state": "Maharashtra",
      "SFX status": "Active"
    },
    {
      "Pincode": "411053",
      "Logistic's Name": "Shadowfax SND",
      "City": "PUNE",
      "state": "Maharashtra",
      "SFX status": "Active"
    },
    {
      "Pincode": "411054",
      "Logistic's Name": "Shadowfax SND",
      "City": "PUNE",
      "state": "Maharashtra",
      "SFX status": "Active"
    },
    {
      "Pincode": "411055",
      "Logistic's Name": "Shadowfax SND",
      "City": "PUNE",
      "state": "Maharashtra",
      "SFX status": "Active"
    },
    {
      "Pincode": "411067",
      "Logistic's Name": "Shadowfax SND",
      "City": "Pune",
      "state": "Maharashtra",
      "SFX status": "Active"
    },
    {
      "Pincode": "411220",
      "Logistic's Name": "Shadowfax SND",
      "City": "PUNE",
      "state": "Maharashtra",
      "SFX status": "Active"
    },
    {
      "Pincode": "411012",
      "Logistic's Name": "Shadowfax SND",
      "City": "PUNE",
      "state": "Maharashtra",
      "SFX status": "Active"
    },
    {
      "Pincode": "411020",
      "Logistic's Name": "Shadowfax SND",
      "City": "PUNE",
      "state": "Maharashtra",
      "SFX status": "Active"
    },
    {
      "Pincode": "411005",
      "Logistic's Name": "Shadowfax SND",
      "City": "PUNE",
      "state": "Maharashtra",
      "SFX status": "Active"
    },
    {
      "Pincode": "411003",
      "Logistic's Name": "Shadowfax SND",
      "City": "PUNE",
      "state": "Maharashtra",
      "SFX status": "Active"
    },
    {
      "Pincode": "412308",
      "Logistic's Name": "Shadowfax SND",
      "City": "PUNE",
      "state": "Maharashtra",
      "SFX status": "Active"
    },
    {
      "Pincode": "411033",
      "Logistic's Name": "Shadowfax SND",
      "City": "PUNE",
      "state": "Maharashtra",
      "SFX status": "Active"
    },
    {
      "Pincode": "411035",
      "Logistic's Name": "Shadowfax SND",
      "City": "PUNE",
      "state": "Maharashtra",
      "SFX status": "Active"
    },
    {
      "Pincode": "411026",
      "Logistic's Name": "Shadowfax SND",
      "City": "PUNE",
      "state": "Maharashtra",
      "SFX status": "Active"
    },
    {
      "Pincode": "411039",
      "Logistic's Name": "Shadowfax SND",
      "City": "PUNE",
      "state": "Maharashtra",
      "SFX status": "Active"
    },
    {
      "Pincode": "411018",
      "Logistic's Name": "Shadowfax SND",
      "City": "PUNE",
      "state": "Maharashtra",
      "SFX status": "Active"
    },
    {
      "Pincode": "412105",
      "Logistic's Name": "Shadowfax SND",
      "City": "PUNE",
      "state": "Maharashtra",
      "SFX status": "Active"
    },
    {
      "Pincode": "734010",
      "Logistic's Name": "Shadowfax SND",
      "City": "SILIGURI",
      "state": "West Bengal",
      "SFX status": "Active"
    },
    {
      "Pincode": "734004",
      "Logistic's Name": "Shadowfax SND",
      "City": "SILIGURI",
      "state": "West Bengal",
      "SFX status": "Active"
    },
    {
      "Pincode": "734003",
      "Logistic's Name": "Shadowfax SND",
      "City": "SILIGURI",
      "state": "West Bengal",
      "SFX status": "Active"
    },
    {
      "Pincode": "734012",
      "Logistic's Name": "Shadowfax SND",
      "City": "SILIGURI",
      "state": "West Bengal",
      "SFX status": "Active"
    },
    {
      "Pincode": "734011",
      "Logistic's Name": "Shadowfax SND",
      "City": "SILIGURI",
      "state": "West Bengal",
      "SFX status": "Active"
    },
    {
      "Pincode": "734013",
      "Logistic's Name": "Shadowfax SND",
      "City": "SILIGURI",
      "state": "West Bengal",
      "SFX status": "Active"
    },
    {
      "Pincode": "734014",
      "Logistic's Name": "Shadowfax SND",
      "City": "NAXALBARI",
      "state": "West Bengal",
      "SFX status": "Active"
    },
    {
      "Pincode": "734401",
      "Logistic's Name": "Shadowfax SND",
      "City": "SILIGURI",
      "state": "West Bengal",
      "SFX status": "Active"
    },
    {
      "Pincode": "734008",
      "Logistic's Name": "Shadowfax SND",
      "City": "SILIGURI",
      "state": "West Bengal",
      "SFX status": "Active"
    },
    {
      "Pincode": "734005",
      "Logistic's Name": "Shadowfax SND",
      "City": "SILIGURI",
      "state": "West Bengal",
      "SFX status": "Active"
    },
    {
      "Pincode": "734006",
      "Logistic's Name": "Shadowfax SND",
      "City": "SILIGURI",
      "state": "West Bengal",
      "SFX status": "Active"
    },
    {
      "Pincode": "734001",
      "Logistic's Name": "Shadowfax SND",
      "City": "SILIGURI",
      "state": "West Bengal",
      "SFX status": "Active"
    },
    {
      "Pincode": "700080",
      "Logistic's Name": "Shadowfax SND",
      "City": "KOLKATA",
      "state": "West Bengal",
      "SFX status": "Active"
    },
    {
      "Pincode": "700077",
      "Logistic's Name": "Shadowfax SND",
      "City": "KOLKATA",
      "state": "West Bengal",
      "SFX status": "Active"
    },
    {
      "Pincode": "700074",
      "Logistic's Name": "Shadowfax SND",
      "City": "KOLKATA",
      "state": "West Bengal",
      "SFX status": "Active"
    },
    {
      "Pincode": "700065",
      "Logistic's Name": "Shadowfax SND",
      "City": "KOLKATA",
      "state": "West Bengal",
      "SFX status": "Active"
    },
    {
      "Pincode": "700030",
      "Logistic's Name": "Shadowfax SND",
      "City": "KOLKATA",
      "state": "West Bengal",
      "SFX status": "Active"
    },
    {
      "Pincode": "700028",
      "Logistic's Name": "Shadowfax SND",
      "City": "KOLKATA",
      "state": "West Bengal",
      "SFX status": "Active"
    },
    {
      "Pincode": "421001",
      "Logistic's Name": "Shadowfax SND",
      "City": "MUMBAI",
      "state": "Maharashtra",
      "SFX status": "Active"
    },
    {
      "Pincode": "421002",
      "Logistic's Name": "Shadowfax SND",
      "City": "MUMBAI",
      "state": "Maharashtra",
      "SFX status": "Active"
    },
    {
      "Pincode": "421003",
      "Logistic's Name": "Shadowfax SND",
      "City": "MUMBAI",
      "state": "Maharashtra",
      "SFX status": "Active"
    },
    {
      "Pincode": "421004",
      "Logistic's Name": "Shadowfax SND",
      "City": "MUMBAI",
      "state": "Maharashtra",
      "SFX status": "Active"
    },
    {
      "Pincode": "400031",
      "Logistic's Name": "Shadowfax SND",
      "City": "MUMBAI",
      "state": "Maharashtra",
      "SFX status": "Active"
    },
    {
      "Pincode": "400012",
      "Logistic's Name": "Shadowfax SND",
      "City": "MUMBAI",
      "state": "Maharashtra",
      "SFX status": "Active"
    },
    {
      "Pincode": "400015",
      "Logistic's Name": "Shadowfax SND",
      "City": "MUMBAI",
      "state": "Maharashtra",
      "SFX status": "Active"
    },
    {
      "Pincode": "400014",
      "Logistic's Name": "Shadowfax SND",
      "City": "MUMBAI",
      "state": "Maharashtra",
      "SFX status": "Active"
    },
    {
      "Pincode": "400033",
      "Logistic's Name": "Shadowfax SND",
      "City": "MUMBAI",
      "state": "Maharashtra",
      "SFX status": "Active"
    },
    {
      "Pincode": "400703",
      "Logistic's Name": "Shadowfax SND",
      "City": "MUMBAI",
      "state": "Maharashtra",
      "SFX status": "Active"
    },
    {
      "Pincode": "400081",
      "Logistic's Name": "Shadowfax SND",
      "City": "MUMBAI",
      "state": "Maharashtra",
      "SFX status": "Active"
    },
    {
      "Pincode": "400080",
      "Logistic's Name": "Shadowfax SND",
      "City": "MUMBAI",
      "state": "Maharashtra",
      "SFX status": "Active"
    },
    {
      "Pincode": "400613",
      "Logistic's Name": "Shadowfax SND",
      "City": "MUMBAI",
      "state": "Maharashtra",
      "SFX status": "Active"
    },
    {
      "Pincode": "400075",
      "Logistic's Name": "Shadowfax SND",
      "City": "MUMBAI",
      "state": "Maharashtra",
      "SFX status": "Active"
    },
    {
      "Pincode": "400079",
      "Logistic's Name": "Shadowfax SND",
      "City": "MUMBAI",
      "state": "Maharashtra",
      "SFX status": "Active"
    },
    {
      "Pincode": "400076",
      "Logistic's Name": "Shadowfax SND",
      "City": "MUMBAI",
      "state": "Maharashtra",
      "SFX status": "Active"
    },
    {
      "Pincode": "400083",
      "Logistic's Name": "Shadowfax SND",
      "City": "MUMBAI",
      "state": "Maharashtra",
      "SFX status": "Active"
    },
    {
      "Pincode": "400060",
      "Logistic's Name": "Shadowfax SND",
      "City": "MUMBAI",
      "state": "Maharashtra",
      "SFX status": "Active"
    },
    {
      "Pincode": "400032",
      "Logistic's Name": "Shadowfax SND",
      "City": "MUMBAI",
      "state": "Maharashtra",
      "SFX status": "Active"
    },
    {
      "Pincode": "400021",
      "Logistic's Name": "Shadowfax SND",
      "City": "MUMBAI",
      "state": "Maharashtra",
      "SFX status": "Active"
    },
    {
      "Pincode": "400023",
      "Logistic's Name": "Shadowfax SND",
      "City": "MUMBAI",
      "state": "Maharashtra",
      "SFX status": "Active"
    },
    {
      "Pincode": "400020",
      "Logistic's Name": "Shadowfax SND",
      "City": "MUMBAI",
      "state": "Maharashtra",
      "SFX status": "Active"
    },
    {
      "Pincode": "400001",
      "Logistic's Name": "Shadowfax SND",
      "City": "MUMBAI",
      "state": "Maharashtra",
      "SFX status": "Active"
    },
    {
      "Pincode": "400005",
      "Logistic's Name": "Shadowfax SND",
      "City": "MUMBAI",
      "state": "Maharashtra",
      "SFX status": "Active"
    },
    {
      "Pincode": "421203",
      "Logistic's Name": "Shadowfax SND",
      "City": "MUMBAI",
      "state": "Maharashtra",
      "SFX status": "Active"
    },
    {
      "Pincode": "421201",
      "Logistic's Name": "Shadowfax SND",
      "City": "MUMBAI",
      "state": "Maharashtra",
      "SFX status": "Active"
    },
    {
      "Pincode": "400611",
      "Logistic's Name": "Shadowfax SND",
      "City": "MUMBAI",
      "state": "Maharashtra",
      "SFX status": "Active"
    },
    {
      "Pincode": "400050",
      "Logistic's Name": "Shadowfax SND",
      "City": "MUMBAI",
      "state": "Maharashtra",
      "SFX status": "Active"
    },
    {
      "Pincode": "700018",
      "Logistic's Name": "Shadowfax SND",
      "City": "KOLKATA",
      "state": "West Bengal",
      "SFX status": "Active"
    },
    {
      "Pincode": "700066",
      "Logistic's Name": "Shadowfax SND",
      "City": "KOLKATA",
      "state": "West Bengal",
      "SFX status": "Active"
    },
    {
      "Pincode": "700044",
      "Logistic's Name": "Shadowfax SND",
      "City": "KOLKATA",
      "state": "West Bengal",
      "SFX status": "Active"
    },
    {
      "Pincode": "700024",
      "Logistic's Name": "Shadowfax SND",
      "City": "KOLKATA",
      "state": "West Bengal",
      "SFX status": "Active"
    },
    {
      "Pincode": "711411",
      "Logistic's Name": "Shadowfax SND",
      "City": "RANIHATI",
      "state": "West Bengal",
      "SFX status": "Active"
    },
    {
      "Pincode": "711405",
      "Logistic's Name": "Shadowfax SND",
      "City": "BALLY",
      "state": "West Bengal",
      "SFX status": "Active"
    },
    {
      "Pincode": "700102",
      "Logistic's Name": "Shadowfax SND",
      "City": "KOLKATA",
      "state": "West Bengal",
      "SFX status": "Active"
    },
    {
      "Pincode": "700062",
      "Logistic's Name": "Shadowfax SND",
      "City": "KOLKATA",
      "state": "West Bengal",
      "SFX status": "Active"
    },
    {
      "Pincode": "700009",
      "Logistic's Name": "Shadowfax SND",
      "City": "KOLKATA",
      "state": "West Bengal",
      "SFX status": "Active"
    },
    {
      "Pincode": "700157",
      "Logistic's Name": "Shadowfax SND",
      "City": "KOLKATA",
      "state": "West Bengal",
      "SFX status": "Active"
    },
    {
      "Pincode": "700159",
      "Logistic's Name": "Shadowfax SND",
      "City": "KOLKATA",
      "state": "West Bengal",
      "SFX status": "Active"
    },
    {
      "Pincode": "700076",
      "Logistic's Name": "Shadowfax SND",
      "City": "KOLKATA",
      "state": "West Bengal",
      "SFX status": "Active"
    },
    {
      "Pincode": "700035",
      "Logistic's Name": "Shadowfax SND",
      "City": "KOLKATA",
      "state": "West Bengal",
      "SFX status": "Active"
    },
    {
      "Pincode": "700037",
      "Logistic's Name": "Shadowfax SND",
      "City": "KOLKATA",
      "state": "West Bengal",
      "SFX status": "Active"
    },
    {
      "Pincode": "700002",
      "Logistic's Name": "Shadowfax SND",
      "City": "KOLKATA",
      "state": "West Bengal",
      "SFX status": "Active"
    },
    {
      "Pincode": "700108",
      "Logistic's Name": "Shadowfax SND",
      "City": "KOLKATA",
      "state": "West Bengal",
      "SFX status": "Active"
    },
    {
      "Pincode": "711107",
      "Logistic's Name": "Shadowfax SND",
      "City": "BALLY",
      "state": "West Bengal",
      "SFX status": "Active"
    },
    {
      "Pincode": "711114",
      "Logistic's Name": "Shadowfax SND",
      "City": "BALLY",
      "state": "West Bengal",
      "SFX status": "Active"
    },
    {
      "Pincode": "711201",
      "Logistic's Name": "Shadowfax SND",
      "City": "BALLY",
      "state": "West Bengal",
      "SFX status": "Active"
    },
    {
      "Pincode": "711227",
      "Logistic's Name": "Shadowfax SND",
      "City": "BALLY",
      "state": "West Bengal",
      "SFX status": "Active"
    },
    {
      "Pincode": "711205",
      "Logistic's Name": "Shadowfax SND",
      "City": "BALLY",
      "state": "West Bengal",
      "SFX status": "Active"
    },
    {
      "Pincode": "700158",
      "Logistic's Name": "Shadowfax SND",
      "City": "KOLKATA",
      "state": "West Bengal",
      "SFX status": "Active"
    },
    {
      "Pincode": "700133",
      "Logistic's Name": "Shadowfax SND",
      "City": "KOLKATA",
      "state": "West Bengal",
      "SFX status": "Active"
    },
    {
      "Pincode": "700131",
      "Logistic's Name": "Shadowfax SND",
      "City": "KOLKATA",
      "state": "West Bengal",
      "SFX status": "Active"
    },
    {
      "Pincode": "700118",
      "Logistic's Name": "Shadowfax SND",
      "City": "BARRACKPORE",
      "state": "West Bengal",
      "SFX status": "Active"
    },
    {
      "Pincode": "700051",
      "Logistic's Name": "Shadowfax SND",
      "City": "KOLKATA",
      "state": "West Bengal",
      "SFX status": "Active"
    },
    {
      "Pincode": "700119",
      "Logistic's Name": "Shadowfax SND",
      "City": "BARRACKPORE",
      "state": "West Bengal",
      "SFX status": "Active"
    },
    {
      "Pincode": "122007",
      "Logistic's Name": "Shadowfax SND",
      "City": "Delhi NCR",
      "state": "HARYANA",
      "SFX status": "Active"
    },
    {
      "Pincode": "122015",
      "Logistic's Name": "Shadowfax SND",
      "City": "Delhi NCR",
      "state": "HARYANA",
      "SFX status": "Active"
    },
    {
      "Pincode": "122016",
      "Logistic's Name": "Shadowfax SND",
      "City": "Delhi NCR",
      "state": "HARYANA",
      "SFX status": "Active"
    },
    {
      "Pincode": "122014",
      "Logistic's Name": "Shadowfax SND",
      "City": "Delhi NCR",
      "state": "HARYANA",
      "SFX status": "Active"
    },
    {
      "Pincode": "122051",
      "Logistic's Name": "Shadowfax SND",
      "City": "Delhi NCR",
      "state": "HARYANA",
      "SFX status": "Active"
    },
    {
      "Pincode": "122050",
      "Logistic's Name": "Shadowfax SND",
      "City": "Delhi NCR",
      "state": "HARYANA",
      "SFX status": "Active"
    },
    {
      "Pincode": "122018",
      "Logistic's Name": "Shadowfax SND",
      "City": "Delhi NCR",
      "state": "HARYANA",
      "SFX status": "Active"
    },
    {
      "Pincode": "201009",
      "Logistic's Name": "Shadowfax SND",
      "City": "Delhi NCR-GHAZIABAD",
      "state": "Uttar Pradesh",
      "SFX status": "Active"
    },
    {
      "Pincode": "201007",
      "Logistic's Name": "Shadowfax SND",
      "City": "Delhi NCR-GHAZIABAD",
      "state": "Uttar Pradesh",
      "SFX status": "Active"
    },
    {
      "Pincode": "201001",
      "Logistic's Name": "Shadowfax SND",
      "City": "Delhi NCR-GHAZIABAD",
      "state": "Uttar Pradesh",
      "SFX status": "Active"
    },
    {
      "Pincode": "201010",
      "Logistic's Name": "Shadowfax SND",
      "City": "Delhi NCR-GHAZIABAD",
      "state": "Uttar Pradesh",
      "SFX status": "Active"
    },
    {
      "Pincode": "201003",
      "Logistic's Name": "Shadowfax SND",
      "City": "Delhi NCR-GHAZIABAD",
      "state": "Uttar Pradesh",
      "SFX status": "Active"
    },
    {
      "Pincode": "201017",
      "Logistic's Name": "Shadowfax SND",
      "City": "Delhi NCR-GHAZIABAD",
      "state": "Uttar Pradesh",
      "SFX status": "Active"
    },
    {
      "Pincode": "110011",
      "Logistic's Name": "Shadowfax SND",
      "City": "DELHI",
      "state": "DELHI",
      "SFX status": "Active"
    },
    {
      "Pincode": "110021",
      "Logistic's Name": "Shadowfax SND",
      "City": "DELHI",
      "state": "DELHI",
      "SFX status": "Active"
    },
    {
      "Pincode": "110083",
      "Logistic's Name": "Shadowfax SND",
      "City": "DELHI",
      "state": "DELHI",
      "SFX status": "Active"
    },
    {
      "Pincode": "110017",
      "Logistic's Name": "Shadowfax SND",
      "City": "DELHI",
      "state": "DELHI",
      "SFX status": "Active"
    },
    {
      "Pincode": "110070",
      "Logistic's Name": "Shadowfax SND",
      "City": "DELHI",
      "state": "DELHI",
      "SFX status": "Active"
    },
    {
      "Pincode": "110057",
      "Logistic's Name": "Shadowfax SND",
      "City": "DELHI",
      "state": "DELHI",
      "SFX status": "Active"
    },
    {
      "Pincode": "110045",
      "Logistic's Name": "Shadowfax SND",
      "City": "DELHI",
      "state": "DELHI",
      "SFX status": "Active"
    },
    {
      "Pincode": "110036",
      "Logistic's Name": "Shadowfax SND",
      "City": "DELHI",
      "state": "DELHI",
      "SFX status": "Active"
    },
    {
      "Pincode": "712704",
      "Logistic's Name": "Shadowfax SND",
      "City": "KONNAGAR",
      "state": "West Bengal",
      "SFX status": "Active"
    },
    {
      "Pincode": "600022",
      "Logistic's Name": "Shadowfax SND",
      "City": "CHENNAI",
      "state": "Tamil Nadu",
      "SFX status": "Active"
    },
    {
      "Pincode": "600130",
      "Logistic's Name": "Shadowfax SND",
      "City": "CHENNAI",
      "state": "Tamil Nadu",
      "SFX status": "Active"
    },
    {
      "Pincode": "600104",
      "Logistic's Name": "Shadowfax SND",
      "City": "CHENNAI",
      "state": "Tamil Nadu",
      "SFX status": "Active"
    },
    {
      "Pincode": "711312",
      "Logistic's Name": "Shadowfax SND",
      "City": "SHYAMPUR",
      "state": "West Bengal",
      "SFX status": "Active"
    },
    {
      "Pincode": "600077",
      "Logistic's Name": "Shadowfax SND",
      "City": "CHENNAI",
      "state": "Tamil Nadu",
      "SFX status": "Active"
    },
    {
      "Pincode": "410208",
      "Logistic's Name": "Shadowfax SND",
      "City": "KAMOTHE",
      "state": "Maharashtra",
      "SFX status": "Active"
    },
    {
      "Pincode": "711303",
      "Logistic's Name": "Shadowfax SND",
      "City": "SHYAMPUR",
      "state": "West Bengal",
      "SFX status": "Active"
    },
    {
      "Pincode": "600041",
      "Logistic's Name": "Shadowfax SND",
      "City": "CHENNAI",
      "state": "Tamil Nadu",
      "SFX status": "Active"
    },
    {
      "Pincode": "400029",
      "Logistic's Name": "Shadowfax SND",
      "City": "MUMBAI",
      "state": "Maharashtra",
      "SFX status": "Active"
    },
    {
      "Pincode": "122052",
      "Logistic's Name": "Shadowfax SND",
      "City": "Delhi NCR",
      "state": "HARYANA",
      "SFX status": "Active"
    },
    {
      "Pincode": "400063",
      "Logistic's Name": "Shadowfax SND",
      "City": "MUMBAI",
      "state": "Maharashtra",
      "SFX status": "Active"
    },
    {
      "Pincode": "600096",
      "Logistic's Name": "Shadowfax SND",
      "City": "CHENNAI",
      "state": "Tamil Nadu",
      "SFX status": "Active"
    },
    {
      "Pincode": "400098",
      "Logistic's Name": "Shadowfax SND",
      "City": "MUMBAI",
      "state": "Maharashtra",
      "SFX status": "Active"
    },
    {
      "Pincode": "560051",
      "Logistic's Name": "Shadowfax SND",
      "City": "BENGALURU",
      "state": "Karnataka",
      "SFX status": "Active"
    },
    {
      "Pincode": "400055",
      "Logistic's Name": "Shadowfax SND",
      "City": "MUMBAI",
      "state": "Maharashtra",
      "SFX status": "Active"
    },
    {
      "Pincode": "600097",
      "Logistic's Name": "Shadowfax SND",
      "City": "CHENNAI",
      "state": "Tamil Nadu",
      "SFX status": "Active"
    },
    {
      "Pincode": "400077",
      "Logistic's Name": "Shadowfax SND",
      "City": "MUMBAI",
      "state": "Maharashtra",
      "SFX status": "Active"
    },
    {
      "Pincode": "700156",
      "Logistic's Name": "Shadowfax SND",
      "City": "KOLKATA",
      "state": "West Bengal",
      "SFX status": "Active"
    },
    {
      "Pincode": "600040",
      "Logistic's Name": "Shadowfax SND",
      "City": "CHENNAI",
      "state": "Tamil Nadu",
      "SFX status": "Active"
    },
    {
      "Pincode": "600111",
      "Logistic's Name": "Shadowfax SND",
      "City": "CHENNAI",
      "state": "Tamil Nadu",
      "SFX status": "Active"
    },
    {
      "Pincode": "600093",
      "Logistic's Name": "Shadowfax SND",
      "City": "CHENNAI",
      "state": "Tamil Nadu",
      "SFX status": "Active"
    },
    {
      "Pincode": "600017",
      "Logistic's Name": "Shadowfax SND",
      "City": "CHENNAI",
      "state": "Tamil Nadu",
      "SFX status": "Active"
    },
    {
      "Pincode": "600019",
      "Logistic's Name": "Shadowfax SND",
      "City": "CHENNAI",
      "state": "Tamil Nadu",
      "SFX status": "Active"
    },
    {
      "Pincode": "600110",
      "Logistic's Name": "Shadowfax SND",
      "City": "CHENNAI",
      "state": "Tamil Nadu",
      "SFX status": "Active"
    },
    {
      "Pincode": "600082",
      "Logistic's Name": "Shadowfax SND",
      "City": "CHENNAI",
      "state": "Tamil Nadu",
      "SFX status": "Active"
    },
    {
      "Pincode": "600038",
      "Logistic's Name": "Shadowfax SND",
      "City": "CHENNAI",
      "state": "Tamil Nadu",
      "SFX status": "Active"
    },
    {
      "Pincode": "600100",
      "Logistic's Name": "Shadowfax SND",
      "City": "CHENNAI",
      "state": "Tamil Nadu",
      "SFX status": "Active"
    },
    {
      "Pincode": "600070",
      "Logistic's Name": "Shadowfax SND",
      "City": "CHENNAI",
      "state": "Tamil Nadu",
      "SFX status": "Active"
    },
    {
      "Pincode": "600075",
      "Logistic's Name": "Shadowfax SND",
      "City": "CHENNAI",
      "state": "Tamil Nadu",
      "SFX status": "Active"
    },
    {
      "Pincode": "600074",
      "Logistic's Name": "Shadowfax SND",
      "City": "CHENNAI",
      "state": "Tamil Nadu",
      "SFX status": "Active"
    },
    {
      "Pincode": "600117",
      "Logistic's Name": "Shadowfax SND",
      "City": "CHENNAI",
      "state": "Tamil Nadu",
      "SFX status": "Active"
    },
    {
      "Pincode": "600129",
      "Logistic's Name": "Shadowfax SND",
      "City": "CHENNAI",
      "state": "Tamil Nadu",
      "SFX status": "Active"
    },
    {
      "Pincode": "600118",
      "Logistic's Name": "Shadowfax SND",
      "City": "CHENNAI",
      "state": "Tamil Nadu",
      "SFX status": "Active"
    },
    {
      "Pincode": "600039",
      "Logistic's Name": "Shadowfax SND",
      "City": "CHENNAI",
      "state": "Tamil Nadu",
      "SFX status": "Active"
    },
    {
      "Pincode": "600078",
      "Logistic's Name": "Shadowfax SND",
      "City": "CHENNAI",
      "state": "Tamil Nadu",
      "SFX status": "Active"
    },
    {
      "Pincode": "600063",
      "Logistic's Name": "Shadowfax SND",
      "City": "CHENNAI",
      "state": "Tamil Nadu",
      "SFX status": "Active"
    },
    {
      "Pincode": "600015",
      "Logistic's Name": "Shadowfax SND",
      "City": "CHENNAI",
      "state": "Tamil Nadu",
      "SFX status": "Active"
    },
    {
      "Pincode": "600002",
      "Logistic's Name": "Shadowfax SND",
      "City": "CHENNAI",
      "state": "Tamil Nadu",
      "SFX status": "Active"
    },
    {
      "Pincode": "600105",
      "Logistic's Name": "Shadowfax SND",
      "City": "CHENNAI",
      "state": "Tamil Nadu",
      "SFX status": "Active"
    },
    {
      "Pincode": "600044",
      "Logistic's Name": "Shadowfax SND",
      "City": "CHENNAI",
      "state": "Tamil Nadu",
      "SFX status": "Active"
    },
    {
      "Pincode": "600079",
      "Logistic's Name": "Shadowfax SND",
      "City": "CHENNAI",
      "state": "Tamil Nadu",
      "SFX status": "Active"
    },
    {
      "Pincode": "600007",
      "Logistic's Name": "Shadowfax SND",
      "City": "CHENNAI",
      "state": "Tamil Nadu",
      "SFX status": "Active"
    },
    {
      "Pincode": "600112",
      "Logistic's Name": "Shadowfax SND",
      "City": "CHENNAI",
      "state": "Tamil Nadu",
      "SFX status": "Active"
    },
    {
      "Pincode": "600012",
      "Logistic's Name": "Shadowfax SND",
      "City": "CHENNAI",
      "state": "Tamil Nadu",
      "SFX status": "Active"
    },
    {
      "Pincode": "600076",
      "Logistic's Name": "Shadowfax SND",
      "City": "CHENNAI",
      "state": "Tamil Nadu",
      "SFX status": "Active"
    },
    {
      "Pincode": "600099",
      "Logistic's Name": "Shadowfax SND",
      "City": "CHENNAI",
      "state": "Tamil Nadu",
      "SFX status": "Active"
    },
    {
      "Pincode": "500123",
      "Logistic's Name": "Shadowfax SND",
      "City": "Hyderabad",
      "state": "Telangana",
      "SFX status": "Active"
    },
    {
      "Pincode": "500075",
      "Logistic's Name": "Shadowfax SND",
      "City": "HYDERABAD",
      "state": "Telangana",
      "SFX status": "Active"
    },
    {
      "Pincode": "500049",
      "Logistic's Name": "Shadowfax SND",
      "City": "HYDERABAD",
      "state": "Telangana",
      "SFX status": "Active"
    },
    {
      "Pincode": "500050",
      "Logistic's Name": "Shadowfax SND",
      "City": "HYDERABAD",
      "state": "Telangana",
      "SFX status": "Active"
    },
    {
      "Pincode": "500041",
      "Logistic's Name": "Shadowfax SND",
      "City": "HYDERABAD",
      "state": "Telangana",
      "SFX status": "Active"
    },
    {
      "Pincode": "500873",
      "Logistic's Name": "Shadowfax SND",
      "City": "Hyderabad",
      "state": "Telangana",
      "SFX status": "Active"
    },
    {
      "Pincode": "500022",
      "Logistic's Name": "Shadowfax SND",
      "City": "HYDERABAD",
      "state": "Telangana",
      "SFX status": "Active"
    },
    {
      "Pincode": "500264",
      "Logistic's Name": "Shadowfax SND",
      "City": "Hyderabad",
      "state": "Telangana",
      "SFX status": "Active"
    },
    {
      "Pincode": "501511",
      "Logistic's Name": "Shadowfax SND",
      "City": "HYDERABAD",
      "state": "Telangana",
      "SFX status": "Active"
    },
    {
      "Pincode": "501510",
      "Logistic's Name": "Shadowfax SND",
      "City": "HYDERABAD",
      "state": "Telangana",
      "SFX status": "Active"
    },
    {
      "Pincode": "500093",
      "Logistic's Name": "Shadowfax SND",
      "City": "HYDERABAD",
      "state": "Telangana",
      "SFX status": "Active"
    },
    {
      "Pincode": "500031",
      "Logistic's Name": "Shadowfax SND",
      "City": "HYDERABAD",
      "state": "Telangana",
      "SFX status": "Active"
    },
    {
      "Pincode": "500091",
      "Logistic's Name": "Shadowfax SND",
      "City": "HYDERABAD",
      "state": "Telangana",
      "SFX status": "Active"
    },
    {
      "Pincode": "500028",
      "Logistic's Name": "Shadowfax SND",
      "City": "HYDERABAD",
      "state": "Telangana",
      "SFX status": "Active"
    },
    {
      "Pincode": "500006",
      "Logistic's Name": "Shadowfax SND",
      "City": "HYDERABAD",
      "state": "Telangana",
      "SFX status": "Active"
    },
    {
      "Pincode": "560025",
      "Logistic's Name": "Shadowfax SND",
      "City": "BENGALURU",
      "state": "Karnataka",
      "SFX status": "Active"
    },
    {
      "Pincode": "560030",
      "Logistic's Name": "Shadowfax SND",
      "City": "BENGALURU",
      "state": "Karnataka",
      "SFX status": "Active"
    },
    {
      "Pincode": "560027",
      "Logistic's Name": "Shadowfax SND",
      "City": "BENGALURU",
      "state": "Karnataka",
      "SFX status": "Active"
    },
    {
      "Pincode": "560092",
      "Logistic's Name": "Shadowfax SND",
      "City": "BENGALURU",
      "state": "Karnataka",
      "SFX status": "Active"
    },
    {
      "Pincode": "700011",
      "Logistic's Name": "Shadowfax SND",
      "City": "KOLKATA",
      "state": "West Bengal",
      "SFX status": "Active"
    },
    {
      "Pincode": "500074",
      "Logistic's Name": "Shadowfax SND",
      "City": "HYDERABAD",
      "state": "Telangana",
      "SFX status": "Active"
    },
    {
      "Pincode": "500070",
      "Logistic's Name": "Shadowfax SND",
      "City": "HYDERABAD",
      "state": "Telangana",
      "SFX status": "Active"
    },
    {
      "Pincode": "500007",
      "Logistic's Name": "Shadowfax SND",
      "City": "HYDERABAD",
      "state": "Telangana",
      "SFX status": "Active"
    },
    {
      "Pincode": "500052",
      "Logistic's Name": "Shadowfax SND",
      "City": "HYDERABAD",
      "state": "Telangana",
      "SFX status": "Active"
    },
    {
      "Pincode": "500046",
      "Logistic's Name": "Shadowfax SND",
      "City": "HYDERABAD",
      "state": "Telangana",
      "SFX status": "Active"
    },
    {
      "Pincode": "500019",
      "Logistic's Name": "Shadowfax SND",
      "City": "HYDERABAD",
      "state": "Telangana",
      "SFX status": "Active"
    },
    {
      "Pincode": "500025",
      "Logistic's Name": "Shadowfax SND",
      "City": "HYDERABAD",
      "state": "Telangana",
      "SFX status": "Active"
    },
    {
      "Pincode": "500082",
      "Logistic's Name": "Shadowfax SND",
      "City": "HYDERABAD",
      "state": "Telangana",
      "SFX status": "Active"
    },
    {
      "Pincode": "500057",
      "Logistic's Name": "Shadowfax SND",
      "City": "HYDERABAD",
      "state": "Telangana",
      "SFX status": "Active"
    },
    {
      "Pincode": "500004",
      "Logistic's Name": "Shadowfax SND",
      "City": "HYDERABAD",
      "state": "Telangana",
      "SFX status": "Active"
    },
    {
      "Pincode": "500034",
      "Logistic's Name": "Shadowfax SND",
      "City": "HYDERABAD",
      "state": "Telangana",
      "SFX status": "Active"
    },
    {
      "Pincode": "501218",
      "Logistic's Name": "Shadowfax SND",
      "City": "HYDERABAD",
      "state": "Telangana",
      "SFX status": "Active"
    },
    {
      "Pincode": "500015",
      "Logistic's Name": "Shadowfax SND",
      "City": "HYDERABAD",
      "state": "Telangana",
      "SFX status": "Active"
    },
    {
      "Pincode": "501505",
      "Logistic's Name": "Shadowfax SND",
      "City": "HYDERABAD",
      "state": "Telangana",
      "SFX status": "Active"
    },
    {
      "Pincode": "500063",
      "Logistic's Name": "Shadowfax SND",
      "City": "HYDERABAD",
      "state": "Telangana",
      "SFX status": "Active"
    },
    {
      "Pincode": "560097",
      "Logistic's Name": "Shadowfax SND",
      "City": "BENGALURU",
      "state": "Karnataka",
      "SFX status": "Active"
    },
    {
      "Pincode": "501301",
      "Logistic's Name": "Shadowfax SND",
      "City": "HYDERABAD",
      "state": "Telangana",
      "SFX status": "Active"
    },
    {
      "Pincode": "500055",
      "Logistic's Name": "Shadowfax SND",
      "City": "HYDERABAD",
      "state": "Telangana",
      "SFX status": "Active"
    },
    {
      "Pincode": "500096",
      "Logistic's Name": "Shadowfax SND",
      "City": "HYDERABAD",
      "state": "Telangana",
      "SFX status": "Active"
    },
    {
      "Pincode": "500086",
      "Logistic's Name": "Shadowfax SND",
      "City": "HYDERABAD",
      "state": "Telangana",
      "SFX status": "Active"
    },
    {
      "Pincode": "502032",
      "Logistic's Name": "Shadowfax SND",
      "City": "HYDERABAD",
      "state": "Telangana",
      "SFX status": "Active"
    },
    {
      "Pincode": "201306",
      "Logistic's Name": "Shadowfax SND",
      "City": "Delhi NCR-GREATER NOIDA",
      "state": "Uttar Pradesh",
      "SFX status": "Active"
    },
    {
      "Pincode": "201304",
      "Logistic's Name": "Shadowfax SND",
      "City": "Delhi NCR-NOIDA",
      "state": "Uttar Pradesh",
      "SFX status": "Active"
    },
    {
      "Pincode": "201305",
      "Logistic's Name": "Shadowfax SND",
      "City": "Delhi NCR-NOIDA",
      "state": "Uttar Pradesh",
      "SFX status": "Active"
    },
    {
      "Pincode": "201308",
      "Logistic's Name": "Shadowfax SND",
      "City": "Delhi NCR-GREATER NOIDA",
      "state": "Uttar Pradesh",
      "SFX status": "Active"
    },
    {
      "Pincode": "122003",
      "Logistic's Name": "Shadowfax SND",
      "City": "Delhi NCR",
      "state": "HARYANA",
      "SFX status": "Active"
    },
    {
      "Pincode": "122011",
      "Logistic's Name": "Shadowfax SND",
      "City": "Delhi NCR",
      "state": "HARYANA",
      "SFX status": "Active"
    },
    {
      "Pincode": "122009",
      "Logistic's Name": "Shadowfax SND",
      "City": "Delhi NCR",
      "state": "HARYANA",
      "SFX status": "Active"
    },
    {
      "Pincode": "201013",
      "Logistic's Name": "Shadowfax SND",
      "City": "Delhi NCR-GHAZIABAD",
      "state": "Uttar Pradesh",
      "SFX status": "Active"
    },
    {
      "Pincode": "201002",
      "Logistic's Name": "Shadowfax SND",
      "City": "Delhi NCR-GHAZIABAD",
      "state": "Uttar Pradesh",
      "SFX status": "Active"
    },
    {
      "Pincode": "122022",
      "Logistic's Name": "Shadowfax SND",
      "City": "Delhi NCR",
      "state": "HARYANA",
      "SFX status": "Active"
    },
    {
      "Pincode": "121010",
      "Logistic's Name": "Shadowfax SND",
      "City": "Delhi NCR",
      "state": "HARYANA",
      "SFX status": "Active"
    },
    {
      "Pincode": "121009",
      "Logistic's Name": "Shadowfax SND",
      "City": "Delhi NCR",
      "state": "HARYANA",
      "SFX status": "Active"
    },
    {
      "Pincode": "121007",
      "Logistic's Name": "Shadowfax SND",
      "City": "Delhi NCR",
      "state": "HARYANA",
      "SFX status": "Active"
    },
    {
      "Pincode": "121012",
      "Logistic's Name": "Shadowfax SND",
      "City": "Delhi NCR",
      "state": "HARYANA",
      "SFX status": "Active"
    },
    {
      "Pincode": "121011",
      "Logistic's Name": "Shadowfax SND",
      "City": "Delhi NCR",
      "state": "HARYANA",
      "SFX status": "Active"
    },
    {
      "Pincode": "121001",
      "Logistic's Name": "Shadowfax SND",
      "City": "Delhi NCR",
      "state": "HARYANA",
      "SFX status": "Active"
    },
    {
      "Pincode": "121005",
      "Logistic's Name": "Shadowfax SND",
      "City": "Delhi NCR",
      "state": "HARYANA",
      "SFX status": "Active"
    },
    {
      "Pincode": "121004",
      "Logistic's Name": "Shadowfax SND",
      "City": "Delhi NCR",
      "state": "HARYANA",
      "SFX status": "Active"
    },
    {
      "Pincode": "110059",
      "Logistic's Name": "Shadowfax SND",
      "City": "DELHI",
      "state": "DELHI",
      "SFX status": "Active"
    },
    {
      "Pincode": "110064",
      "Logistic's Name": "Shadowfax SND",
      "City": "DELHI",
      "state": "DELHI",
      "SFX status": "Active"
    },
    {
      "Pincode": "110062",
      "Logistic's Name": "Shadowfax SND",
      "City": "DELHI",
      "state": "DELHI",
      "SFX status": "Active"
    },
    {
      "Pincode": "110080",
      "Logistic's Name": "Shadowfax SND",
      "City": "DELHI",
      "state": "DELHI",
      "SFX status": "Active"
    },
    {
      "Pincode": "110063",
      "Logistic's Name": "Shadowfax SND",
      "City": "DELHI",
      "state": "DELHI",
      "SFX status": "Active"
    },
    {
      "Pincode": "110087",
      "Logistic's Name": "Shadowfax SND",
      "City": "DELHI",
      "state": "DELHI",
      "SFX status": "Active"
    },
    {
      "Pincode": "201309",
      "Logistic's Name": "Shadowfax SND",
      "City": "Delhi NCR-NOIDA",
      "state": "Uttar Pradesh",
      "SFX status": "Active"
    },
    {
      "Pincode": "201301",
      "Logistic's Name": "Shadowfax SND",
      "City": "Delhi NCR-NOIDA",
      "state": "Uttar Pradesh",
      "SFX status": "Active"
    },
    {
      "Pincode": "110069",
      "Logistic's Name": "Shadowfax SND",
      "City": "DELHI",
      "state": "DELHI",
      "SFX status": "Active"
    },
    {
      "Pincode": "110019",
      "Logistic's Name": "Shadowfax SND",
      "City": "DELHI",
      "state": "DELHI",
      "SFX status": "Active"
    },
    {
      "Pincode": "110067",
      "Logistic's Name": "Shadowfax SND",
      "City": "DELHI",
      "state": "DELHI",
      "SFX status": "Active"
    },
    {
      "Pincode": "110068",
      "Logistic's Name": "Shadowfax SND",
      "City": "DELHI",
      "state": "DELHI",
      "SFX status": "Active"
    },
    {
      "Pincode": "110008",
      "Logistic's Name": "Shadowfax SND",
      "City": "DELHI",
      "state": "DELHI",
      "SFX status": "Active"
    },
    {
      "Pincode": "110049",
      "Logistic's Name": "Shadowfax SND",
      "City": "DELHI",
      "state": "DELHI",
      "SFX status": "Active"
    },
    {
      "Pincode": "110003",
      "Logistic's Name": "Shadowfax SND",
      "City": "DELHI",
      "state": "DELHI",
      "SFX status": "Active"
    },
    {
      "Pincode": "110016",
      "Logistic's Name": "Shadowfax SND",
      "City": "DELHI",
      "state": "DELHI",
      "SFX status": "Active"
    },
    {
      "Pincode": "110024",
      "Logistic's Name": "Shadowfax SND",
      "City": "DELHI",
      "state": "DELHI",
      "SFX status": "Active"
    },
    {
      "Pincode": "560098",
      "Logistic's Name": "Shadowfax SND",
      "City": "BENGALURU",
      "state": "Karnataka",
      "SFX status": "Active"
    },
    {
      "Pincode": "110058",
      "Logistic's Name": "Shadowfax SND",
      "City": "DELHI",
      "state": "DELHI",
      "SFX status": "Active"
    },
    {
      "Pincode": "560061",
      "Logistic's Name": "Shadowfax SND",
      "City": "BENGALURU",
      "state": "Karnataka",
      "SFX status": "Active"
    },
    {
      "Pincode": "201310",
      "Logistic's Name": "Shadowfax SND",
      "City": "Delhi NCR-GREATER NOIDA",
      "state": "Uttar Pradesh",
      "SFX status": "Active"
    },
    {
      "Pincode": "201004",
      "Logistic's Name": "Shadowfax SND",
      "City": "Delhi NCR-GHAZIABAD",
      "state": "Uttar Pradesh",
      "SFX status": "Active"
    },
    {
      "Pincode": "110074",
      "Logistic's Name": "Shadowfax SND",
      "City": "DELHI",
      "state": "DELHI",
      "SFX status": "Active"
    },
    {
      "Pincode": "110047",
      "Logistic's Name": "Shadowfax SND",
      "City": "DELHI",
      "state": "DELHI",
      "SFX status": "Active"
    },
    {
      "Pincode": "110075",
      "Logistic's Name": "Shadowfax SND",
      "City": "DELHI",
      "state": "DELHI",
      "SFX status": "Active"
    },
    {
      "Pincode": "110026",
      "Logistic's Name": "Shadowfax SND",
      "City": "DELHI",
      "state": "DELHI",
      "SFX status": "Active"
    },
    {
      "Pincode": "110007",
      "Logistic's Name": "Shadowfax SND",
      "City": "DELHI",
      "state": "DELHI",
      "SFX status": "Active"
    },
    {
      "Pincode": "560052",
      "Logistic's Name": "Shadowfax SND",
      "City": "BENGALURU",
      "state": "Karnataka",
      "SFX status": "Active"
    },
    {
      "Pincode": "600069",
      "Logistic's Name": "Shadowfax SND",
      "City": "CHENNAI",
      "state": "Tamil Nadu",
      "SFX status": "Active"
    },
    {
      "Pincode": "560001",
      "Logistic's Name": "Shadowfax SND",
      "City": "BENGALURU",
      "state": "Karnataka",
      "SFX status": "Active"
    },
    {
      "Pincode": "560022",
      "Logistic's Name": "Shadowfax SND",
      "City": "BENGALURU",
      "state": "Karnataka",
      "SFX status": "Active"
    },
    {
      "Pincode": "560063",
      "Logistic's Name": "Shadowfax SND",
      "City": "BENGALURU",
      "state": "Karnataka",
      "SFX status": "Active"
    },
    {
      "Pincode": "560013",
      "Logistic's Name": "Shadowfax SND",
      "City": "BENGALURU",
      "state": "Karnataka",
      "SFX status": "Active"
    },
    {
      "Pincode": "560055",
      "Logistic's Name": "Shadowfax SND",
      "City": "BENGALURU",
      "state": "Karnataka",
      "SFX status": "Active"
    },
    {
      "Pincode": "560020",
      "Logistic's Name": "Shadowfax SND",
      "City": "BENGALURU",
      "state": "Karnataka",
      "SFX status": "Active"
    },
    {
      "Pincode": "560003",
      "Logistic's Name": "Shadowfax SND",
      "City": "BENGALURU",
      "state": "Karnataka",
      "SFX status": "Active"
    },
    {
      "Pincode": "560094",
      "Logistic's Name": "Shadowfax SND",
      "City": "BENGALURU",
      "state": "Karnataka",
      "SFX status": "Active"
    },
    {
      "Pincode": "560044",
      "Logistic's Name": "Shadowfax SND",
      "City": "BENGALURU",
      "state": "Karnataka",
      "SFX status": "Active"
    },
    {
      "Pincode": "560023",
      "Logistic's Name": "Shadowfax SND",
      "City": "BENGALURU",
      "state": "Karnataka",
      "SFX status": "Active"
    },
    {
      "Pincode": "560037",
      "Logistic's Name": "Shadowfax SND",
      "City": "BENGALURU",
      "state": "Karnataka",
      "SFX status": "Active"
    },
    {
      "Pincode": "560048",
      "Logistic's Name": "Shadowfax SND",
      "City": "BENGALURU",
      "state": "Karnataka",
      "SFX status": "Active"
    },
    {
      "Pincode": "560077",
      "Logistic's Name": "Shadowfax SND",
      "City": "BENGALURU",
      "state": "Karnataka",
      "SFX status": "Active"
    },
    {
      "Pincode": "560095",
      "Logistic's Name": "Shadowfax SND",
      "City": "BENGALURU",
      "state": "Karnataka",
      "SFX status": "Active"
    },
    {
      "Pincode": "560070",
      "Logistic's Name": "Shadowfax SND",
      "City": "BENGALURU",
      "state": "Karnataka",
      "SFX status": "Active"
    },
    {
      "Pincode": "560045",
      "Logistic's Name": "Shadowfax SND",
      "City": "BENGALURU",
      "state": "Karnataka",
      "SFX status": "Active"
    },
    {
      "Pincode": "560005",
      "Logistic's Name": "Shadowfax SND",
      "City": "BENGALURU",
      "state": "Karnataka",
      "SFX status": "Active"
    },
    {
      "Pincode": "560067",
      "Logistic's Name": "Shadowfax SND",
      "City": "BENGALURU",
      "state": "Karnataka",
      "SFX status": "Active"
    },
    {
      "Pincode": "560043",
      "Logistic's Name": "Shadowfax SND",
      "City": "BENGALURU",
      "state": "Karnataka",
      "SFX status": "Active"
    },
    {
      "Pincode": "560042",
      "Logistic's Name": "Shadowfax SND",
      "City": "BENGALURU",
      "state": "Karnataka",
      "SFX status": "Active"
    },
    {
      "Pincode": "560007",
      "Logistic's Name": "Shadowfax SND",
      "City": "BENGALURU",
      "state": "Karnataka",
      "SFX status": "Active"
    },
    {
      "Pincode": "560026",
      "Logistic's Name": "Shadowfax SND",
      "City": "BENGALURU",
      "state": "Karnataka",
      "SFX status": "Active"
    },
    {
      "Pincode": "560053",
      "Logistic's Name": "Shadowfax SND",
      "City": "BENGALURU",
      "state": "Karnataka",
      "SFX status": "Active"
    },
    {
      "Pincode": "560009",
      "Logistic's Name": "Shadowfax SND",
      "City": "BENGALURU",
      "state": "Karnataka",
      "SFX status": "Active"
    },
    {
      "Pincode": "560019",
      "Logistic's Name": "Shadowfax SND",
      "City": "BENGALURU",
      "state": "Karnataka",
      "SFX status": "Active"
    },
    {
      "Pincode": "560018",
      "Logistic's Name": "Shadowfax SND",
      "City": "BENGALURU",
      "state": "Karnataka",
      "SFX status": "Active"
    },
    {
      "Pincode": "560011",
      "Logistic's Name": "Shadowfax SND",
      "City": "BENGALURU",
      "state": "Karnataka",
      "SFX status": "Active"
    },
    {
      "Pincode": "560102",
      "Logistic's Name": "Shadowfax SND",
      "City": "BENGALURU",
      "state": "Karnataka",
      "SFX status": "Active"
    },
    {
      "Pincode": "560035",
      "Logistic's Name": "Shadowfax SND",
      "City": "BENGALURU",
      "state": "Karnataka",
      "SFX status": "Active"
    },
    {
      "Pincode": "560106",
      "Logistic's Name": "Shadowfax SND",
      "City": "BENGALURU",
      "state": "Karnataka",
      "SFX status": "Active"
    },
    {
      "Pincode": "560065",
      "Logistic's Name": "Shadowfax SND",
      "City": "BENGALURU",
      "state": "Karnataka",
      "SFX status": "Active"
    },
    {
      "Pincode": "560064",
      "Logistic's Name": "Shadowfax SND",
      "City": "BENGALURU",
      "state": "Karnataka",
      "SFX status": "Active"
    },
    {
      "Pincode": "560024",
      "Logistic's Name": "Shadowfax SND",
      "City": "BENGALURU",
      "state": "Karnataka",
      "SFX status": "Active"
    },
    {
      "Pincode": "121006",
      "Logistic's Name": "Shadowfax SND",
      "City": "Delhi NCR",
      "state": "HARYANA",
      "SFX status": "Active"
    },
    {
      "Pincode": "560031",
      "Logistic's Name": "Shadowfax SND",
      "City": "BENGALURU",
      "state": "Karnataka",
      "SFX status": "Active"
    },
    {
      "Pincode": "600073",
      "Logistic's Name": "Shadowfax SND",
      "City": "CHENNAI",
      "state": "Tamil Nadu",
      "SFX status": "Active"
    },
    {
      "Pincode": "560073",
      "Logistic's Name": "Shadowfax SND",
      "City": "BENGALURU",
      "state": "Karnataka",
      "SFX status": "Active"
    },
    {
      "Pincode": "560057",
      "Logistic's Name": "Shadowfax SND",
      "City": "BENGALURU",
      "state": "Karnataka",
      "SFX status": "Active"
    },
    {
      "Pincode": "600014",
      "Logistic's Name": "Shadowfax SND",
      "City": "CHENNAI",
      "state": "Tamil Nadu",
      "SFX status": "Active"
    },
    {
      "Pincode": "600086",
      "Logistic's Name": "Shadowfax SND",
      "City": "CHENNAI",
      "state": "Tamil Nadu",
      "SFX status": "Active"
    },
    {
      "Pincode": "600101",
      "Logistic's Name": "Shadowfax SND",
      "City": "CHENNAI",
      "state": "Tamil Nadu",
      "SFX status": "Active"
    },
    {
      "Pincode": "600029",
      "Logistic's Name": "Shadowfax SND",
      "City": "CHENNAI",
      "state": "Tamil Nadu",
      "SFX status": "Active"
    },
    {
      "Pincode": "600106",
      "Logistic's Name": "Shadowfax SND",
      "City": "CHENNAI",
      "state": "Tamil Nadu",
      "SFX status": "Active"
    },
    {
      "Pincode": "560068",
      "Logistic's Name": "Shadowfax SND",
      "City": "BENGALURU",
      "state": "Karnataka",
      "SFX status": "Active"
    },
    {
      "Pincode": "600030",
      "Logistic's Name": "Shadowfax SND",
      "City": "CHENNAI",
      "state": "Tamil Nadu",
      "SFX status": "Active"
    },
    {
      "Pincode": "600102",
      "Logistic's Name": "Shadowfax SND",
      "City": "CHENNAI",
      "state": "Tamil Nadu",
      "SFX status": "Active"
    },
    {
      "Pincode": "600042",
      "Logistic's Name": "Shadowfax SND",
      "City": "CHENNAI",
      "state": "Tamil Nadu",
      "SFX status": "Active"
    },
    {
      "Pincode": "560114",
      "Logistic's Name": "Shadowfax SND",
      "City": "BENGALURU",
      "state": "Karnataka",
      "SFX status": "Active"
    },
    {
      "Pincode": "600088",
      "Logistic's Name": "Shadowfax SND",
      "City": "CHENNAI",
      "state": "Tamil Nadu",
      "SFX status": "Active"
    },
    {
      "Pincode": "600113",
      "Logistic's Name": "Shadowfax SND",
      "City": "CHENNAI",
      "state": "Tamil Nadu",
      "SFX status": "Active"
    },
    {
      "Pincode": "560034",
      "Logistic's Name": "Shadowfax SND",
      "City": "BENGALURU",
      "state": "Karnataka",
      "SFX status": "Active"
    },
    {
      "Pincode": "600085",
      "Logistic's Name": "Shadowfax SND",
      "City": "CHENNAI",
      "state": "Tamil Nadu",
      "SFX status": "Active"
    },
    {
      "Pincode": "600036",
      "Logistic's Name": "Shadowfax SND",
      "City": "CHENNAI",
      "state": "Tamil Nadu",
      "SFX status": "Active"
    },
    {
      "Pincode": "600025",
      "Logistic's Name": "Shadowfax SND",
      "City": "CHENNAI",
      "state": "Tamil Nadu",
      "SFX status": "Active"
    },
    {
      "Pincode": "560017",
      "Logistic's Name": "Shadowfax SND",
      "City": "BENGALURU",
      "state": "Karnataka",
      "SFX status": "Active"
    },
    {
      "Pincode": "600128",
      "Logistic's Name": "Shadowfax SND",
      "City": "CHENNAI",
      "state": "Tamil Nadu",
      "SFX status": "Active"
    },
    {
      "Pincode": "600043",
      "Logistic's Name": "Shadowfax SND",
      "City": "CHENNAI",
      "state": "Tamil Nadu",
      "SFX status": "Active"
    },
    {
      "Pincode": "560074",
      "Logistic's Name": "Shadowfax SND",
      "City": "BENGALURU",
      "state": "Karnataka",
      "SFX status": "Active"
    },
    {
      "Pincode": "600046",
      "Logistic's Name": "Shadowfax SND",
      "City": "CHENNAI",
      "state": "Tamil Nadu",
      "SFX status": "Active"
    },
    {
      "Pincode": "560038",
      "Logistic's Name": "Shadowfax SND",
      "City": "BENGALURU",
      "state": "Karnataka",
      "SFX status": "Active"
    },
    {
      "Pincode": "600045",
      "Logistic's Name": "Shadowfax SND",
      "City": "CHENNAI",
      "state": "Tamil Nadu",
      "SFX status": "Active"
    },
    {
      "Pincode": "600059",
      "Logistic's Name": "Shadowfax SND",
      "City": "CHENNAI",
      "state": "Tamil Nadu",
      "SFX status": "Active"
    },
    {
      "Pincode": "700104",
      "Logistic's Name": "Shadowfax SND",
      "City": "KOLKATA",
      "state": "West Bengal",
      "SFX status": "Active"
    },
    {
      "Pincode": "700008",
      "Logistic's Name": "Shadowfax SND",
      "City": "KOLKATA",
      "state": "West Bengal",
      "SFX status": "Active"
    },
    {
      "Pincode": "700063",
      "Logistic's Name": "Shadowfax SND",
      "City": "KOLKATA",
      "state": "West Bengal",
      "SFX status": "Active"
    },
    {
      "Pincode": "700061",
      "Logistic's Name": "Shadowfax SND",
      "City": "KOLKATA",
      "state": "West Bengal",
      "SFX status": "Active"
    },
    {
      "Pincode": "700064",
      "Logistic's Name": "Shadowfax SND",
      "City": "KOLKATA",
      "state": "West Bengal",
      "SFX status": "Active"
    },
    {
      "Pincode": "600008",
      "Logistic's Name": "Shadowfax SND",
      "City": "CHENNAI",
      "state": "Tamil Nadu",
      "SFX status": "Active"
    },
    {
      "Pincode": "600034",
      "Logistic's Name": "Shadowfax SND",
      "City": "CHENNAI",
      "state": "Tamil Nadu",
      "SFX status": "Active"
    },
    {
      "Pincode": "600031",
      "Logistic's Name": "Shadowfax SND",
      "City": "CHENNAI",
      "state": "Tamil Nadu",
      "SFX status": "Active"
    },
    {
      "Pincode": "600064",
      "Logistic's Name": "Shadowfax SND",
      "City": "CHENNAI",
      "state": "Tamil Nadu",
      "SFX status": "Active"
    },
    {
      "Pincode": "600047",
      "Logistic's Name": "Shadowfax SND",
      "City": "CHENNAI",
      "state": "Tamil Nadu",
      "SFX status": "Active"
    },
    {
      "Pincode": "700048",
      "Logistic's Name": "Shadowfax SND",
      "City": "KOLKATA",
      "state": "West Bengal",
      "SFX status": "Active"
    },
    {
      "Pincode": "700067",
      "Logistic's Name": "Shadowfax SND",
      "City": "KOLKATA",
      "state": "West Bengal",
      "SFX status": "Active"
    },
    {
      "Pincode": "700106",
      "Logistic's Name": "Shadowfax SND",
      "City": "KOLKATA",
      "state": "West Bengal",
      "SFX status": "Active"
    },
    {
      "Pincode": "700098",
      "Logistic's Name": "Shadowfax SND",
      "City": "KOLKATA",
      "state": "West Bengal",
      "SFX status": "Active"
    },
    {
      "Pincode": "700097",
      "Logistic's Name": "Shadowfax SND",
      "City": "KOLKATA",
      "state": "West Bengal",
      "SFX status": "Active"
    },
    {
      "Pincode": "700091",
      "Logistic's Name": "Shadowfax SND",
      "City": "KOLKATA",
      "state": "West Bengal",
      "SFX status": "Active"
    },
    {
      "Pincode": "700136",
      "Logistic's Name": "Shadowfax SND",
      "City": "KOLKATA",
      "state": "West Bengal",
      "SFX status": "Active"
    },
    {
      "Pincode": "700016",
      "Logistic's Name": "Shadowfax SND",
      "City": "KOLKATA",
      "state": "West Bengal",
      "SFX status": "Active"
    },
    {
      "Pincode": "700071",
      "Logistic's Name": "Shadowfax SND",
      "City": "KOLKATA",
      "state": "West Bengal",
      "SFX status": "Active"
    },
    {
      "Pincode": "700087",
      "Logistic's Name": "Shadowfax SND",
      "City": "KOLKATA",
      "state": "West Bengal",
      "SFX status": "Active"
    },
    {
      "Pincode": "700014",
      "Logistic's Name": "Shadowfax SND",
      "City": "KOLKATA",
      "state": "West Bengal",
      "SFX status": "Active"
    },
    {
      "Pincode": "700073",
      "Logistic's Name": "Shadowfax SND",
      "City": "KOLKATA",
      "state": "West Bengal",
      "SFX status": "Active"
    },
    {
      "Pincode": "700013",
      "Logistic's Name": "Shadowfax SND",
      "City": "KOLKATA",
      "state": "West Bengal",
      "SFX status": "Active"
    },
    {
      "Pincode": "700012",
      "Logistic's Name": "Shadowfax SND",
      "City": "KOLKATA",
      "state": "West Bengal",
      "SFX status": "Active"
    },
    {
      "Pincode": "700069",
      "Logistic's Name": "Shadowfax SND",
      "City": "KOLKATA",
      "state": "West Bengal",
      "SFX status": "Active"
    },
    {
      "Pincode": "700072",
      "Logistic's Name": "Shadowfax SND",
      "City": "KOLKATA",
      "state": "West Bengal",
      "SFX status": "Active"
    },
    {
      "Pincode": "700010",
      "Logistic's Name": "Shadowfax SND",
      "City": "KOLKATA",
      "state": "West Bengal",
      "SFX status": "Active"
    },
    {
      "Pincode": "500066",
      "Logistic's Name": "Shadowfax SND",
      "City": "HYDERABAD",
      "state": "Telangana",
      "SFX status": "Active"
    },
    {
      "Pincode": "700054",
      "Logistic's Name": "Shadowfax SND",
      "City": "KOLKATA",
      "state": "West Bengal",
      "SFX status": "Active"
    },
    {
      "Pincode": "700105",
      "Logistic's Name": "Shadowfax SND",
      "City": "KOLKATA",
      "state": "West Bengal",
      "SFX status": "Active"
    },
    {
      "Pincode": "700015",
      "Logistic's Name": "Shadowfax SND",
      "City": "KOLKATA",
      "state": "West Bengal",
      "SFX status": "Active"
    },
    {
      "Pincode": "700085",
      "Logistic's Name": "Shadowfax SND",
      "City": "KOLKATA",
      "state": "West Bengal",
      "SFX status": "Active"
    },
    {
      "Pincode": "711403",
      "Logistic's Name": "Shadowfax SND",
      "City": "BALLY",
      "state": "West Bengal",
      "SFX status": "Active"
    },
    {
      "Pincode": "711409",
      "Logistic's Name": "Shadowfax SND",
      "City": "BALLY",
      "state": "West Bengal",
      "SFX status": "Active"
    },
    {
      "Pincode": "711113",
      "Logistic's Name": "Shadowfax SND",
      "City": "BALLY",
      "state": "West Bengal",
      "SFX status": "Active"
    },
    {
      "Pincode": "700006",
      "Logistic's Name": "Shadowfax SND",
      "City": "KOLKATA",
      "state": "West Bengal",
      "SFX status": "Active"
    },
    {
      "Pincode": "700005",
      "Logistic's Name": "Shadowfax SND",
      "City": "KOLKATA",
      "state": "West Bengal",
      "SFX status": "Active"
    },
    {
      "Pincode": "700004",
      "Logistic's Name": "Shadowfax SND",
      "City": "KOLKATA",
      "state": "West Bengal",
      "SFX status": "Active"
    },
    {
      "Pincode": "700003",
      "Logistic's Name": "Shadowfax SND",
      "City": "KOLKATA",
      "state": "West Bengal",
      "SFX status": "Active"
    },
    {
      "Pincode": "700019",
      "Logistic's Name": "Shadowfax SND",
      "City": "KOLKATA",
      "state": "West Bengal",
      "SFX status": "Active"
    },
    {
      "Pincode": "700029",
      "Logistic's Name": "Shadowfax SND",
      "City": "KOLKATA",
      "state": "West Bengal",
      "SFX status": "Active"
    },
    {
      "Pincode": "600023",
      "Logistic's Name": "Shadowfax SND",
      "City": "CHENNAI",
      "state": "Tamil Nadu",
      "SFX status": "Active"
    },
    {
      "Pincode": "600010",
      "Logistic's Name": "Shadowfax SND",
      "City": "CHENNAI",
      "state": "Tamil Nadu",
      "SFX status": "Active"
    },
    {
      "Pincode": "711112",
      "Logistic's Name": "Shadowfax SND",
      "City": "HOWRAH",
      "state": "West Bengal",
      "SFX status": "Active"
    },
    {
      "Pincode": "711109",
      "Logistic's Name": "Shadowfax SND",
      "City": "HOWRAH",
      "state": "West Bengal",
      "SFX status": "Active"
    },
    {
      "Pincode": "711110",
      "Logistic's Name": "Shadowfax SND",
      "City": "HOWRAH",
      "state": "West Bengal",
      "SFX status": "Active"
    },
    {
      "Pincode": "711111",
      "Logistic's Name": "Shadowfax SND",
      "City": "HOWRAH",
      "state": "West Bengal",
      "SFX status": "Active"
    },
    {
      "Pincode": "711104",
      "Logistic's Name": "Shadowfax SND",
      "City": "HOWRAH",
      "state": "West Bengal",
      "SFX status": "Active"
    },
    {
      "Pincode": "711103",
      "Logistic's Name": "Shadowfax SND",
      "City": "HOWRAH",
      "state": "West Bengal",
      "SFX status": "Active"
    },
    {
      "Pincode": "700144",
      "Logistic's Name": "Shadowfax SND",
      "City": "BARUIPUR",
      "state": "West Bengal",
      "SFX status": "Active"
    },
    {
      "Pincode": "560111",
      "Logistic's Name": "Shadowfax SND",
      "City": "BENGALURU",
      "state": "Karnataka",
      "SFX status": "Active"
    },
    {
      "Pincode": "560016",
      "Logistic's Name": "Shadowfax SND",
      "City": "BENGALURU",
      "state": "Karnataka",
      "SFX status": "Active"
    },
    {
      "Pincode": "560046",
      "Logistic's Name": "Shadowfax SND",
      "City": "BENGALURU",
      "state": "Karnataka",
      "SFX status": "Active"
    },
    {
      "Pincode": "560006",
      "Logistic's Name": "Shadowfax SND",
      "City": "BENGALURU",
      "state": "Karnataka",
      "SFX status": "Active"
    },
    {
      "Pincode": "500092",
      "Logistic's Name": "Shadowfax SND",
      "City": "HYDERABAD",
      "state": "Telangana",
      "SFX status": "Active"
    },
    {
      "Pincode": "500039",
      "Logistic's Name": "Shadowfax SND",
      "City": "HYDERABAD",
      "state": "Telangana",
      "SFX status": "Active"
    },
    {
      "Pincode": "500065",
      "Logistic's Name": "Shadowfax SND",
      "City": "HYDERABAD",
      "state": "Telangana",
      "SFX status": "Active"
    },
    {
      "Pincode": "500023",
      "Logistic's Name": "Shadowfax SND",
      "City": "HYDERABAD",
      "state": "Telangana",
      "SFX status": "Active"
    },
    {
      "Pincode": "500073",
      "Logistic's Name": "Shadowfax SND",
      "City": "HYDERABAD",
      "state": "Telangana",
      "SFX status": "Active"
    },
    {
      "Pincode": "500089",
      "Logistic's Name": "Shadowfax SND",
      "City": "HYDERABAD",
      "state": "Telangana",
      "SFX status": "Active"
    },
    {
      "Pincode": "500008",
      "Logistic's Name": "Shadowfax SND",
      "City": "HYDERABAD",
      "state": "Telangana",
      "SFX status": "Active"
    },
    {
      "Pincode": "500033",
      "Logistic's Name": "Shadowfax SND",
      "City": "HYDERABAD",
      "state": "Telangana",
      "SFX status": "Active"
    },
    {
      "Pincode": "500014",
      "Logistic's Name": "Shadowfax SND",
      "City": "MEDCHAL",
      "state": "Telangana",
      "SFX status": "Active"
    },
    {
      "Pincode": "500100",
      "Logistic's Name": "Shadowfax SND",
      "City": "MEDCHAL",
      "state": "Telangana",
      "SFX status": "Active"
    },
    {
      "Pincode": "500032",
      "Logistic's Name": "Shadowfax SND",
      "City": "HYDERABAD",
      "state": "Telangana",
      "SFX status": "Active"
    },
    {
      "Pincode": "500064",
      "Logistic's Name": "Shadowfax SND",
      "City": "HYDERABAD",
      "state": "Telangana",
      "SFX status": "Active"
    },
    {
      "Pincode": "500056",
      "Logistic's Name": "Shadowfax SND",
      "City": "HYDERABAD",
      "state": "Telangana",
      "SFX status": "Active"
    },
    {
      "Pincode": "500010",
      "Logistic's Name": "Shadowfax SND",
      "City": "HYDERABAD",
      "state": "Telangana",
      "SFX status": "Active"
    },
    {
      "Pincode": "500097",
      "Logistic's Name": "Shadowfax SND",
      "City": "HYDERABAD",
      "state": "Telangana",
      "SFX status": "Active"
    },
    {
      "Pincode": "500079",
      "Logistic's Name": "Shadowfax SND",
      "City": "HYDERABAD",
      "state": "Telangana",
      "SFX status": "Active"
    },
    {
      "Pincode": "201313",
      "Logistic's Name": "Shadowfax SND",
      "City": "Delhi NCR-GREATER NOIDA",
      "state": "Uttar Pradesh",
      "SFX status": "Active"
    },
    {
      "Pincode": "121003",
      "Logistic's Name": "Shadowfax SND",
      "City": "Delhi NCR",
      "state": "HARYANA",
      "SFX status": "Active"
    },
    {
      "Pincode": "110014",
      "Logistic's Name": "Shadowfax SND",
      "City": "DELHI",
      "state": "DELHI",
      "SFX status": "Active"
    },
    {
      "Pincode": "110013",
      "Logistic's Name": "Shadowfax SND",
      "City": "DELHI",
      "state": "DELHI",
      "SFX status": "Active"
    },
    {
      "Pincode": "110031",
      "Logistic's Name": "Shadowfax SND",
      "City": "DELHI",
      "state": "DELHI",
      "SFX status": "Active"
    },
    {
      "Pincode": "110090",
      "Logistic's Name": "Shadowfax SND",
      "City": "DELHI",
      "state": "DELHI",
      "SFX status": "Active"
    },
    {
      "Pincode": "201011",
      "Logistic's Name": "Shadowfax SND",
      "City": "Delhi NCR-GHAZIABAD",
      "state": "Uttar Pradesh",
      "SFX status": "Active"
    },
    {
      "Pincode": "122004",
      "Logistic's Name": "Shadowfax SND",
      "City": "Delhi NCR",
      "state": "HARYANA",
      "SFX status": "Active"
    },
    {
      "Pincode": "560071",
      "Logistic's Name": "Shadowfax SND",
      "City": "BENGALURU",
      "state": "Karnataka",
      "SFX status": "Active"
    },
    {
      "Pincode": "110054",
      "Logistic's Name": "Shadowfax SND",
      "City": "DELHI",
      "state": "DELHI",
      "SFX status": "Active"
    },
    {
      "Pincode": "110088",
      "Logistic's Name": "Shadowfax SND",
      "City": "DELHI",
      "state": "DELHI",
      "SFX status": "Active"
    },
    {
      "Pincode": "110095",
      "Logistic's Name": "Shadowfax SND",
      "City": "DELHI",
      "state": "DELHI",
      "SFX status": "Active"
    },
    {
      "Pincode": "110046",
      "Logistic's Name": "Shadowfax SND",
      "City": "DELHI",
      "state": "DELHI",
      "SFX status": "Active"
    },
    {
      "Pincode": "122006",
      "Logistic's Name": "Shadowfax SND",
      "City": "Delhi NCR",
      "state": "HARYANA",
      "SFX status": "Active"
    },
    {
      "Pincode": "110077",
      "Logistic's Name": "Shadowfax SND",
      "City": "DELHI",
      "state": "DELHI",
      "SFX status": "Active"
    },
    {
      "Pincode": "110035",
      "Logistic's Name": "Shadowfax SND",
      "City": "DELHI",
      "state": "DELHI",
      "SFX status": "Active"
    },
    {
      "Pincode": "110023",
      "Logistic's Name": "Shadowfax SND",
      "City": "DELHI",
      "state": "DELHI",
      "SFX status": "Active"
    },
    {
      "Pincode": "110093",
      "Logistic's Name": "Shadowfax SND",
      "City": "DELHI",
      "state": "DELHI",
      "SFX status": "Active"
    },
    {
      "Pincode": "110015",
      "Logistic's Name": "Shadowfax SND",
      "City": "DELHI",
      "state": "DELHI",
      "SFX status": "Active"
    },
    {
      "Pincode": "201005",
      "Logistic's Name": "Shadowfax SND",
      "City": "Delhi NCR-GHAZIABAD",
      "state": "Uttar Pradesh",
      "SFX status": "Active"
    },
    {
      "Pincode": "201307",
      "Logistic's Name": "Shadowfax SND",
      "City": "Delhi NCR-NOIDA",
      "state": "Uttar Pradesh",
      "SFX status": "Active"
    },
    {
      "Pincode": "110042",
      "Logistic's Name": "Shadowfax SND",
      "City": "DELHI",
      "state": "DELHI",
      "SFX status": "Active"
    },
    {
      "Pincode": "560008",
      "Logistic's Name": "Shadowfax SND",
      "City": "BENGALURU",
      "state": "Karnataka",
      "SFX status": "Active"
    },
    {
      "Pincode": "122002",
      "Logistic's Name": "Shadowfax SND",
      "City": "Delhi NCR",
      "state": "HARYANA",
      "SFX status": "Active"
    },
    {
      "Pincode": "110034",
      "Logistic's Name": "Shadowfax SND",
      "City": "DELHI",
      "state": "DELHI",
      "SFX status": "Active"
    },
    {
      "Pincode": "110025",
      "Logistic's Name": "Shadowfax SND",
      "City": "DELHI",
      "state": "DELHI",
      "SFX status": "Active"
    },
    {
      "Pincode": "110086",
      "Logistic's Name": "Shadowfax SND",
      "City": "DELHI",
      "state": "DELHI",
      "SFX status": "Active"
    },
    {
      "Pincode": "110053",
      "Logistic's Name": "Shadowfax SND",
      "City": "DELHI",
      "state": "DELHI",
      "SFX status": "Active"
    },
    {
      "Pincode": "110033",
      "Logistic's Name": "Shadowfax SND",
      "City": "DELHI",
      "state": "DELHI",
      "SFX status": "Active"
    },
    {
      "Pincode": "560002",
      "Logistic's Name": "Shadowfax SND",
      "City": "BENGALURU",
      "state": "Karnataka",
      "SFX status": "Active"
    },
    {
      "Pincode": "110094",
      "Logistic's Name": "Shadowfax SND",
      "City": "DELHI",
      "state": "DELHI",
      "SFX status": "Active"
    },
    {
      "Pincode": "560080",
      "Logistic's Name": "Shadowfax SND",
      "City": "BENGALURU",
      "state": "Karnataka",
      "SFX status": "Active"
    },
    {
      "Pincode": "560039",
      "Logistic's Name": "Shadowfax SND",
      "City": "BENGALURU",
      "state": "Karnataka",
      "SFX status": "Active"
    },
    {
      "Pincode": "560041",
      "Logistic's Name": "Shadowfax SND",
      "City": "BENGALURU",
      "state": "Karnataka",
      "SFX status": "Active"
    },
    {
      "Pincode": "560004",
      "Logistic's Name": "Shadowfax SND",
      "City": "BENGALURU",
      "state": "Karnataka",
      "SFX status": "Active"
    },
    {
      "Pincode": "560086",
      "Logistic's Name": "Shadowfax SND",
      "City": "BENGALURU",
      "state": "Karnataka",
      "SFX status": "Active"
    },
    {
      "Pincode": "560010",
      "Logistic's Name": "Shadowfax SND",
      "City": "BENGALURU",
      "state": "Karnataka",
      "SFX status": "Active"
    },
    {
      "Pincode": "560060",
      "Logistic's Name": "Shadowfax SND",
      "City": "BENGALURU",
      "state": "Karnataka",
      "SFX status": "Active"
    },
    {
      "Pincode": "560087",
      "Logistic's Name": "Shadowfax SND",
      "City": "BENGALURU",
      "state": "Karnataka",
      "SFX status": "Active"
    },
    {
      "Pincode": "560091",
      "Logistic's Name": "Shadowfax SND",
      "City": "BENGALURU",
      "state": "Karnataka",
      "SFX status": "Active"
    },
    {
      "Pincode": "560103",
      "Logistic's Name": "Shadowfax SND",
      "City": "BENGALURU",
      "state": "Karnataka",
      "SFX status": "Active"
    },
    {
      "Pincode": "712123",
      "Logistic's Name": "Shadowfax SND",
      "City": "CHANDANNAGAR",
      "state": "West Bengal",
      "SFX status": "Active"
    },
    {
      "Pincode": "712103",
      "Logistic's Name": "Shadowfax SND",
      "City": "CHANDANNAGAR",
      "state": "West Bengal",
      "SFX status": "Active"
    },
    {
      "Pincode": "712102",
      "Logistic's Name": "Shadowfax SND",
      "City": "CHANDANNAGAR",
      "state": "West Bengal",
      "SFX status": "Active"
    },
    {
      "Pincode": "712101",
      "Logistic's Name": "Shadowfax SND",
      "City": "CHANDANNAGAR",
      "state": "West Bengal",
      "SFX status": "Active"
    },
    {
      "Pincode": "712148",
      "Logistic's Name": "Shadowfax SND",
      "City": "CHANDANNAGAR",
      "state": "West Bengal",
      "SFX status": "Active"
    },
    {
      "Pincode": "712502",
      "Logistic's Name": "Shadowfax SND",
      "City": "CHANDANNAGAR",
      "state": "West Bengal",
      "SFX status": "Active"
    },
    {
      "Pincode": "712503",
      "Logistic's Name": "Shadowfax SND",
      "City": "CHANDANNAGAR",
      "state": "West Bengal",
      "SFX status": "Active"
    },
    {
      "Pincode": "712104",
      "Logistic's Name": "Shadowfax SND",
      "City": "CHANDANNAGAR",
      "state": "West Bengal",
      "SFX status": "Active"
    },
    {
      "Pincode": "712137",
      "Logistic's Name": "Shadowfax SND",
      "City": "CHANDANNAGAR",
      "state": "West Bengal",
      "SFX status": "Active"
    },
    {
      "Pincode": "712138",
      "Logistic's Name": "Shadowfax SND",
      "City": "CHANDANNAGAR",
      "state": "West Bengal",
      "SFX status": "Active"
    },
    {
      "Pincode": "712139",
      "Logistic's Name": "Shadowfax SND",
      "City": "CHANDANNAGAR",
      "state": "West Bengal",
      "SFX status": "Active"
    },
    {
      "Pincode": "712105",
      "Logistic's Name": "Shadowfax SND",
      "City": "CHANDANNAGAR",
      "state": "West Bengal",
      "SFX status": "Active"
    },
    {
      "Pincode": "712136",
      "Logistic's Name": "Shadowfax SND",
      "City": "CHANDANNAGAR",
      "state": "West Bengal",
      "SFX status": "Active"
    },
    {
      "Pincode": "712222",
      "Logistic's Name": "Shadowfax SND",
      "City": "CHANDANNAGAR",
      "state": "West Bengal",
      "SFX status": "Active"
    },
    {
      "Pincode": "712223",
      "Logistic's Name": "Shadowfax SND",
      "City": "SHRIRAMPUR",
      "state": "West Bengal",
      "SFX status": "Active"
    },
    {
      "Pincode": "712124",
      "Logistic's Name": "Shadowfax SND",
      "City": "CHANDANNAGAR",
      "state": "West Bengal",
      "SFX status": "Active"
    },
    {
      "Pincode": "712201",
      "Logistic's Name": "Shadowfax SND",
      "City": "SHRIRAMPUR",
      "state": "West Bengal",
      "SFX status": "Active"
    },
    {
      "Pincode": "712203",
      "Logistic's Name": "Shadowfax SND",
      "City": "SHRIRAMPUR",
      "state": "West Bengal",
      "SFX status": "Active"
    },
    {
      "Pincode": "712202",
      "Logistic's Name": "Shadowfax SND",
      "City": "SHRIRAMPUR",
      "state": "West Bengal",
      "SFX status": "Active"
    },
    {
      "Pincode": "712221",
      "Logistic's Name": "Shadowfax SND",
      "City": "CHANDANNAGAR",
      "state": "West Bengal",
      "SFX status": "Active"
    },
    {
      "Pincode": "712204",
      "Logistic's Name": "Shadowfax SND",
      "City": "SHRIRAMPUR",
      "state": "West Bengal",
      "SFX status": "Active"
    },
    {
      "Pincode": "712125",
      "Logistic's Name": "Shadowfax SND",
      "City": "CHANDANNAGAR",
      "state": "West Bengal",
      "SFX status": "Active"
    },
    {
      "Pincode": "743144",
      "Logistic's Name": "Shadowfax SND",
      "City": "BARRACKPORE",
      "state": "West Bengal",
      "SFX status": "Active"
    },
    {
      "Pincode": "743126",
      "Logistic's Name": "Shadowfax SND",
      "City": "BARRACKPORE",
      "state": "West Bengal",
      "SFX status": "Active"
    },
    {
      "Pincode": "743125",
      "Logistic's Name": "Shadowfax SND",
      "City": "BARRACKPORE",
      "state": "West Bengal",
      "SFX status": "Active"
    },
    {
      "Pincode": "743122",
      "Logistic's Name": "Shadowfax SND",
      "City": "BARRACKPORE",
      "state": "West Bengal",
      "SFX status": "Active"
    },
    {
      "Pincode": "743129",
      "Logistic's Name": "Shadowfax SND",
      "City": "BARRACKPORE",
      "state": "West Bengal",
      "SFX status": "Active"
    },
    {
      "Pincode": "743133",
      "Logistic's Name": "Shadowfax SND",
      "City": "BARRACKPORE",
      "state": "West Bengal",
      "SFX status": "Active"
    },
    {
      "Pincode": "743128",
      "Logistic's Name": "Shadowfax SND",
      "City": "BARRACKPORE",
      "state": "West Bengal",
      "SFX status": "Active"
    },
    {
      "Pincode": "743194",
      "Logistic's Name": "Shadowfax SND",
      "City": "BARRACKPORE",
      "state": "West Bengal",
      "SFX status": "Active"
    },
    {
      "Pincode": "743127",
      "Logistic's Name": "Shadowfax SND",
      "City": "BARRACKPORE",
      "state": "West Bengal",
      "SFX status": "Active"
    },
    {
      "Pincode": "743165",
      "Logistic's Name": "Shadowfax SND",
      "City": "KALYANI",
      "state": "West Bengal",
      "SFX status": "Active"
    },
    {
      "Pincode": "743135",
      "Logistic's Name": "Shadowfax SND",
      "City": "KALYANI",
      "state": "West Bengal",
      "SFX status": "Active"
    },
    {
      "Pincode": "743136",
      "Logistic's Name": "Shadowfax SND",
      "City": "KALYANI",
      "state": "West Bengal",
      "SFX status": "Active"
    },
    {
      "Pincode": "743134",
      "Logistic's Name": "Shadowfax SND",
      "City": "KALYANI",
      "state": "West Bengal",
      "SFX status": "Active"
    },
    {
      "Pincode": "743166",
      "Logistic's Name": "Shadowfax SND",
      "City": "KALYANI",
      "state": "West Bengal",
      "SFX status": "Active"
    },
    {
      "Pincode": "711316",
      "Logistic's Name": "Shadowfax SND",
      "City": "ULUBERIA",
      "state": "West Bengal",
      "SFX status": "Active"
    },
    {
      "Pincode": "711315",
      "Logistic's Name": "Shadowfax SND",
      "City": "ULUBERIA",
      "state": "West Bengal",
      "SFX status": "Active"
    },
    {
      "Pincode": "711308",
      "Logistic's Name": "Shadowfax SND",
      "City": "ULUBERIA",
      "state": "West Bengal",
      "SFX status": "Active"
    },
    {
      "Pincode": "711307",
      "Logistic's Name": "Shadowfax SND",
      "City": "RANIHATI",
      "state": "West Bengal",
      "SFX status": "Active"
    },
    {
      "Pincode": "600116",
      "Logistic's Name": "Shadowfax SND",
      "City": "CHENNAI",
      "state": "Tamil Nadu",
      "SFX status": "Active"
    },
    {
      "Pincode": "600089",
      "Logistic's Name": "Shadowfax SND",
      "City": "CHENNAI",
      "state": "Tamil Nadu",
      "SFX status": "Active"
    },
    {
      "Pincode": "600125",
      "Logistic's Name": "Shadowfax SND",
      "City": "CHENNAI",
      "state": "Tamil Nadu",
      "SFX status": "Active"
    },
    {
      "Pincode": "711306",
      "Logistic's Name": "Shadowfax SND",
      "City": "ULUBERIA",
      "state": "West Bengal",
      "SFX status": "Active"
    },
    {
      "Pincode": "600087",
      "Logistic's Name": "Shadowfax SND",
      "City": "CHENNAI",
      "state": "Tamil Nadu",
      "SFX status": "Active"
    },
    {
      "Pincode": "600094",
      "Logistic's Name": "Shadowfax SND",
      "City": "CHENNAI",
      "state": "Tamil Nadu",
      "SFX status": "Active"
    },
    {
      "Pincode": "700128",
      "Logistic's Name": "Shadowfax SND",
      "City": "BARASAT",
      "state": "West Bengal",
      "SFX status": "Active"
    },
    {
      "Pincode": "700127",
      "Logistic's Name": "Shadowfax SND",
      "City": "BARASAT",
      "state": "West Bengal",
      "SFX status": "Active"
    },
    {
      "Pincode": "700155",
      "Logistic's Name": "Shadowfax SND",
      "City": "BARASAT",
      "state": "West Bengal",
      "SFX status": "Active"
    },
    {
      "Pincode": "700124",
      "Logistic's Name": "Shadowfax SND",
      "City": "BARASAT",
      "state": "West Bengal",
      "SFX status": "Active"
    },
    {
      "Pincode": "600024",
      "Logistic's Name": "Shadowfax SND",
      "City": "CHENNAI",
      "state": "Tamil Nadu",
      "SFX status": "Active"
    },
    {
      "Pincode": "600092",
      "Logistic's Name": "Shadowfax SND",
      "City": "CHENNAI",
      "state": "Tamil Nadu",
      "SFX status": "Active"
    },
    {
      "Pincode": "600026",
      "Logistic's Name": "Shadowfax SND",
      "City": "CHENNAI",
      "state": "Tamil Nadu",
      "SFX status": "Active"
    },
    {
      "Pincode": "600004",
      "Logistic's Name": "Shadowfax SND",
      "City": "CHENNAI",
      "state": "Tamil Nadu",
      "SFX status": "Active"
    },
    {
      "Pincode": "600035",
      "Logistic's Name": "Shadowfax SND",
      "City": "CHENNAI",
      "state": "Tamil Nadu",
      "SFX status": "Active"
    },
    {
      "Pincode": "700129",
      "Logistic's Name": "Shadowfax SND",
      "City": "BARASAT",
      "state": "West Bengal",
      "SFX status": "Active"
    },
    {
      "Pincode": "700126",
      "Logistic's Name": "Shadowfax SND",
      "City": "BARASAT",
      "state": "West Bengal",
      "SFX status": "Active"
    },
    {
      "Pincode": "600126",
      "Logistic's Name": "Shadowfax SND",
      "City": "CHENNAI",
      "state": "Tamil Nadu",
      "SFX status": "Active"
    },
    {
      "Pincode": "600052",
      "Logistic's Name": "Shadowfax SND",
      "City": "REDHILLS",
      "state": "Tamil Nadu",
      "SFX status": "Active"
    },
    {
      "Pincode": "600066",
      "Logistic's Name": "Shadowfax SND",
      "City": "REDHILLS",
      "state": "Tamil Nadu",
      "SFX status": "Active"
    },
    {
      "Pincode": "600056",
      "Logistic's Name": "Shadowfax SND",
      "City": "CHENNAI",
      "state": "Tamil Nadu",
      "SFX status": "Active"
    },
    {
      "Pincode": "600122",
      "Logistic's Name": "Shadowfax SND",
      "City": "CHENNAI",
      "state": "Tamil Nadu",
      "SFX status": "Active"
    },
    {
      "Pincode": "600091",
      "Logistic's Name": "Shadowfax SND",
      "City": "CHENNAI",
      "state": "Tamil Nadu",
      "SFX status": "Active"
    },
    {
      "Pincode": "600061",
      "Logistic's Name": "Shadowfax SND",
      "City": "CHENNAI",
      "state": "Tamil Nadu",
      "SFX status": "Active"
    },
    {
      "Pincode": "700125",
      "Logistic's Name": "Shadowfax SND",
      "City": "BARASAT",
      "state": "West Bengal",
      "SFX status": "Active"
    },
    {
      "Pincode": "712702",
      "Logistic's Name": "Shadowfax SND",
      "City": "KONNAGAR",
      "state": "West Bengal",
      "SFX status": "Active"
    },
    {
      "Pincode": "600114",
      "Logistic's Name": "Shadowfax SND",
      "City": "CHENNAI",
      "state": "Tamil Nadu",
      "SFX status": "Active"
    },
    {
      "Pincode": "600021",
      "Logistic's Name": "Shadowfax SND",
      "City": "CHENNAI",
      "state": "Tamil Nadu",
      "SFX status": "Active"
    },
    {
      "Pincode": "600081",
      "Logistic's Name": "Shadowfax SND",
      "City": "CHENNAI",
      "state": "Tamil Nadu",
      "SFX status": "Active"
    },
    {
      "Pincode": "712235",
      "Logistic's Name": "Shadowfax SND",
      "City": "KONNAGAR",
      "state": "West Bengal",
      "SFX status": "Active"
    },
    {
      "Pincode": "600013",
      "Logistic's Name": "Shadowfax SND",
      "City": "CHENNAI",
      "state": "Tamil Nadu",
      "SFX status": "Active"
    },
    {
      "Pincode": "712311",
      "Logistic's Name": "Shadowfax SND",
      "City": "BALLY",
      "state": "West Bengal",
      "SFX status": "Active"
    },
    {
      "Pincode": "600108",
      "Logistic's Name": "Shadowfax SND",
      "City": "CHENNAI",
      "state": "Tamil Nadu",
      "SFX status": "Active"
    },
    {
      "Pincode": "712246",
      "Logistic's Name": "Shadowfax SND",
      "City": "KONNAGAR",
      "state": "West Bengal",
      "SFX status": "Active"
    },
    {
      "Pincode": "600051",
      "Logistic's Name": "Shadowfax SND",
      "City": "REDHILLS",
      "state": "Tamil Nadu",
      "SFX status": "Active"
    },
    {
      "Pincode": "712232",
      "Logistic's Name": "Shadowfax SND",
      "City": "KONNAGAR",
      "state": "West Bengal",
      "SFX status": "Active"
    },
    {
      "Pincode": "712248",
      "Logistic's Name": "Shadowfax SND",
      "City": "KONNAGAR",
      "state": "West Bengal",
      "SFX status": "Active"
    },
    {
      "Pincode": "712233",
      "Logistic's Name": "Shadowfax SND",
      "City": "KONNAGAR",
      "state": "West Bengal",
      "SFX status": "Active"
    },
    {
      "Pincode": "712245",
      "Logistic's Name": "Shadowfax SND",
      "City": "KONNAGAR",
      "state": "West Bengal",
      "SFX status": "Active"
    },
    {
      "Pincode": "712258",
      "Logistic's Name": "Shadowfax SND",
      "City": "BALLY",
      "state": "West Bengal",
      "SFX status": "Active"
    },
    {
      "Pincode": "712249",
      "Logistic's Name": "Shadowfax SND",
      "City": "KONNAGAR",
      "state": "West Bengal",
      "SFX status": "Active"
    },
    {
      "Pincode": "712250",
      "Logistic's Name": "Shadowfax SND",
      "City": "KONNAGAR",
      "state": "West Bengal",
      "SFX status": "Active"
    },
    {
      "Pincode": "712234",
      "Logistic's Name": "Shadowfax SND",
      "City": "KONNAGAR",
      "state": "West Bengal",
      "SFX status": "Active"
    },
    {
      "Pincode": "600032",
      "Logistic's Name": "Shadowfax SND",
      "City": "CHENNAI",
      "state": "Tamil Nadu",
      "SFX status": "Active"
    },
    {
      "Pincode": "712310",
      "Logistic's Name": "Shadowfax SND",
      "City": "BALLY",
      "state": "West Bengal",
      "SFX status": "Active"
    },
    {
      "Pincode": "712708",
      "Logistic's Name": "Shadowfax SND",
      "City": "BALLY",
      "state": "West Bengal",
      "SFX status": "Active"
    },
    {
      "Pincode": "712247",
      "Logistic's Name": "Shadowfax SND",
      "City": "KONNAGAR",
      "state": "West Bengal",
      "SFX status": "Active"
    },
    {
      "Pincode": "700031",
      "Logistic's Name": "Shadowfax SND",
      "City": "KOLKATA",
      "state": "West Bengal",
      "SFX status": "Active"
    },
    {
      "Pincode": "700042",
      "Logistic's Name": "Shadowfax SND",
      "City": "KOLKATA",
      "state": "West Bengal",
      "SFX status": "Active"
    },
    {
      "Pincode": "700075",
      "Logistic's Name": "Shadowfax SND",
      "City": "KOLKATA",
      "state": "West Bengal",
      "SFX status": "Active"
    },
    {
      "Pincode": "700099",
      "Logistic's Name": "Shadowfax SND",
      "City": "KOLKATA",
      "state": "West Bengal",
      "SFX status": "Active"
    },
    {
      "Pincode": "700078",
      "Logistic's Name": "Shadowfax SND",
      "City": "KOLKATA",
      "state": "West Bengal",
      "SFX status": "Active"
    },
    {
      "Pincode": "700107",
      "Logistic's Name": "Shadowfax SND",
      "City": "KOLKATA",
      "state": "West Bengal",
      "SFX status": "Active"
    },
    {
      "Pincode": "700145",
      "Logistic's Name": "Shadowfax SND",
      "City": "BARUIPUR",
      "state": "West Bengal",
      "SFX status": "Active"
    },
    {
      "Pincode": "700147",
      "Logistic's Name": "Shadowfax SND",
      "City": "BARUIPUR",
      "state": "West Bengal",
      "SFX status": "Active"
    },
    {
      "Pincode": "700146",
      "Logistic's Name": "Shadowfax SND",
      "City": "BARUIPUR",
      "state": "West Bengal",
      "SFX status": "Active"
    },
    {
      "Pincode": "700148",
      "Logistic's Name": "Shadowfax SND",
      "City": "BARUIPUR",
      "state": "West Bengal",
      "SFX status": "Active"
    },
    {
      "Pincode": "700150",
      "Logistic's Name": "Shadowfax SND",
      "City": "BARUIPUR",
      "state": "West Bengal",
      "SFX status": "Active"
    },
    {
      "Pincode": "600016",
      "Logistic's Name": "Shadowfax SND",
      "City": "CHENNAI",
      "state": "Tamil Nadu",
      "SFX status": "Active"
    },
    {
      "Pincode": "600083",
      "Logistic's Name": "Shadowfax SND",
      "City": "CHENNAI",
      "state": "Tamil Nadu",
      "SFX status": "Active"
    },
    {
      "Pincode": "600033",
      "Logistic's Name": "Shadowfax SND",
      "City": "CHENNAI",
      "state": "Tamil Nadu",
      "SFX status": "Active"
    },
    {
      "Pincode": "600003",
      "Logistic's Name": "Shadowfax SND",
      "City": "CHENNAI",
      "state": "Tamil Nadu",
      "SFX status": "Active"
    },
    {
      "Pincode": "600084",
      "Logistic's Name": "Shadowfax SND",
      "City": "CHENNAI",
      "state": "Tamil Nadu",
      "SFX status": "Active"
    },
    {
      "Pincode": "700082",
      "Logistic's Name": "Shadowfax SND",
      "City": "KOLKATA",
      "state": "West Bengal",
      "SFX status": "Active"
    },
    {
      "Pincode": "700053",
      "Logistic's Name": "Shadowfax SND",
      "City": "KOLKATA",
      "state": "West Bengal",
      "SFX status": "Active"
    },
    {
      "Pincode": "700041",
      "Logistic's Name": "Shadowfax SND",
      "City": "KOLKATA",
      "state": "West Bengal",
      "SFX status": "Active"
    },
    {
      "Pincode": "700034",
      "Logistic's Name": "Shadowfax SND",
      "City": "KOLKATA",
      "state": "West Bengal",
      "SFX status": "Active"
    },
    {
      "Pincode": "700060",
      "Logistic's Name": "Shadowfax SND",
      "City": "KOLKATA",
      "state": "West Bengal",
      "SFX status": "Active"
    },
    {
      "Pincode": "700038",
      "Logistic's Name": "Shadowfax SND",
      "City": "KOLKATA",
      "state": "West Bengal",
      "SFX status": "Active"
    },
    {
      "Pincode": "700088",
      "Logistic's Name": "Shadowfax SND",
      "City": "KOLKATA",
      "state": "West Bengal",
      "SFX status": "Active"
    },
    {
      "Pincode": "700152",
      "Logistic's Name": "Shadowfax SND",
      "City": "KOLKATA",
      "state": "West Bengal",
      "SFX status": "Active"
    },
    {
      "Pincode": "700094",
      "Logistic's Name": "Shadowfax SND",
      "City": "KOLKATA",
      "state": "West Bengal",
      "SFX status": "Active"
    },
    {
      "Pincode": "700149",
      "Logistic's Name": "Shadowfax SND",
      "City": "BARUIPUR",
      "state": "West Bengal",
      "SFX status": "Active"
    },
    {
      "Pincode": "700154",
      "Logistic's Name": "Shadowfax SND",
      "City": "KOLKATA",
      "state": "West Bengal",
      "SFX status": "Active"
    },
    {
      "Pincode": "700151",
      "Logistic's Name": "Shadowfax SND",
      "City": "BARUIPUR",
      "state": "West Bengal",
      "SFX status": "Active"
    },
    {
      "Pincode": "700153",
      "Logistic's Name": "Shadowfax SND",
      "City": "KOLKATA",
      "state": "West Bengal",
      "SFX status": "Active"
    },
    {
      "Pincode": "700084",
      "Logistic's Name": "Shadowfax SND",
      "City": "KOLKATA",
      "state": "West Bengal",
      "SFX status": "Active"
    },
    {
      "Pincode": "700103",
      "Logistic's Name": "Shadowfax SND",
      "City": "BARUIPUR",
      "state": "West Bengal",
      "SFX status": "Active"
    },
    {
      "Pincode": "700070",
      "Logistic's Name": "Shadowfax SND",
      "City": "KOLKATA",
      "state": "West Bengal",
      "SFX status": "Active"
    },
    {
      "Pincode": "700047",
      "Logistic's Name": "Shadowfax SND",
      "City": "KOLKATA",
      "state": "West Bengal",
      "SFX status": "Active"
    },
    {
      "Pincode": "700092",
      "Logistic's Name": "Shadowfax SND",
      "City": "KOLKATA",
      "state": "West Bengal",
      "SFX status": "Active"
    },
    {
      "Pincode": "700086",
      "Logistic's Name": "Shadowfax SND",
      "City": "KOLKATA",
      "state": "West Bengal",
      "SFX status": "Active"
    },
    {
      "Pincode": "700096",
      "Logistic's Name": "Shadowfax SND",
      "City": "KOLKATA",
      "state": "West Bengal",
      "SFX status": "Active"
    },
    {
      "Pincode": "700093",
      "Logistic's Name": "Shadowfax SND",
      "City": "KOLKATA",
      "state": "West Bengal",
      "SFX status": "Active"
    },
    {
      "Pincode": "700032",
      "Logistic's Name": "Shadowfax SND",
      "City": "KOLKATA",
      "state": "West Bengal",
      "SFX status": "Active"
    },
    {
      "Pincode": "700040",
      "Logistic's Name": "Shadowfax SND",
      "City": "KOLKATA",
      "state": "West Bengal",
      "SFX status": "Active"
    },
    {
      "Pincode": "700142",
      "Logistic's Name": "Shadowfax SND",
      "City": "KOLKATA",
      "state": "West Bengal",
      "SFX status": "Active"
    },
    {
      "Pincode": "700143",
      "Logistic's Name": "Shadowfax SND",
      "City": "KOLKATA",
      "state": "West Bengal",
      "SFX status": "Active"
    },
    {
      "Pincode": "700139",
      "Logistic's Name": "Shadowfax SND",
      "City": "KOLKATA",
      "state": "West Bengal",
      "SFX status": "Active"
    },
    {
      "Pincode": "700138",
      "Logistic's Name": "Shadowfax SND",
      "City": "KOLKATA",
      "state": "West Bengal",
      "SFX status": "Active"
    },
    {
      "Pincode": "700141",
      "Logistic's Name": "Shadowfax SND",
      "City": "KOLKATA",
      "state": "West Bengal",
      "SFX status": "Active"
    },
    {
      "Pincode": "700137",
      "Logistic's Name": "Shadowfax SND",
      "City": "KOLKATA",
      "state": "West Bengal",
      "SFX status": "Active"
    },
    {
      "Pincode": "700140",
      "Logistic's Name": "Shadowfax SND",
      "City": "KOLKATA",
      "state": "West Bengal",
      "SFX status": "Active"
    },
    {
      "Pincode": "700059",
      "Logistic's Name": "Shadowfax SND",
      "City": "KOLKATA",
      "state": "West Bengal",
      "SFX status": "Active"
    },
    {
      "Pincode": "700052",
      "Logistic's Name": "Shadowfax SND",
      "City": "KOLKATA",
      "state": "West Bengal",
      "SFX status": "Active"
    },
    {
      "Pincode": "700079",
      "Logistic's Name": "Shadowfax SND",
      "City": "KOLKATA",
      "state": "West Bengal",
      "SFX status": "Active"
    },
    {
      "Pincode": "700081",
      "Logistic's Name": "Shadowfax SND",
      "City": "KOLKATA",
      "state": "West Bengal",
      "SFX status": "Active"
    },
    {
      "Pincode": "700055",
      "Logistic's Name": "Shadowfax SND",
      "City": "KOLKATA",
      "state": "West Bengal",
      "SFX status": "Active"
    },
    {
      "Pincode": "700101",
      "Logistic's Name": "Shadowfax SND",
      "City": "KOLKATA",
      "state": "West Bengal",
      "SFX status": "Active"
    },
    {
      "Pincode": "700089",
      "Logistic's Name": "Shadowfax SND",
      "City": "KOLKATA",
      "state": "West Bengal",
      "SFX status": "Active"
    },
    {
      "Pincode": "711105",
      "Logistic's Name": "Shadowfax SND",
      "City": "BALLY",
      "state": "West Bengal",
      "SFX status": "Active"
    },
    {
      "Pincode": "711402",
      "Logistic's Name": "Shadowfax SND",
      "City": "RANIHATI",
      "state": "West Bengal",
      "SFX status": "Active"
    },
    {
      "Pincode": "711101",
      "Logistic's Name": "Shadowfax SND",
      "City": "HOWRAH",
      "state": "West Bengal",
      "SFX status": "Active"
    },
    {
      "Pincode": "711106",
      "Logistic's Name": "Shadowfax SND",
      "City": "HOWRAH",
      "state": "West Bengal",
      "SFX status": "Active"
    },
    {
      "Pincode": "711102",
      "Logistic's Name": "Shadowfax SND",
      "City": "HOWRAH",
      "state": "West Bengal",
      "SFX status": "Active"
    },
    {
      "Pincode": "700036",
      "Logistic's Name": "Shadowfax SND",
      "City": "KOLKATA",
      "state": "West Bengal",
      "SFX status": "Active"
    },
    {
      "Pincode": "700090",
      "Logistic's Name": "Shadowfax SND",
      "City": "KOLKATA",
      "state": "West Bengal",
      "SFX status": "Active"
    },
    {
      "Pincode": "700050",
      "Logistic's Name": "Shadowfax SND",
      "City": "KOLKATA",
      "state": "West Bengal",
      "SFX status": "Active"
    },
    {
      "Pincode": "700100",
      "Logistic's Name": "Shadowfax SND",
      "City": "KOLKATA",
      "state": "West Bengal",
      "SFX status": "Active"
    },
    {
      "Pincode": "700039",
      "Logistic's Name": "Shadowfax SND",
      "City": "KOLKATA",
      "state": "West Bengal",
      "SFX status": "Active"
    },
    {
      "Pincode": "700046",
      "Logistic's Name": "Shadowfax SND",
      "City": "KOLKATA",
      "state": "West Bengal",
      "SFX status": "Active"
    },
    {
      "Pincode": "700017",
      "Logistic's Name": "Shadowfax SND",
      "City": "KOLKATA",
      "state": "West Bengal",
      "SFX status": "Active"
    },
    {
      "Pincode": "700033",
      "Logistic's Name": "Shadowfax SND",
      "City": "KOLKATA",
      "state": "West Bengal",
      "SFX status": "Active"
    },
    {
      "Pincode": "700068",
      "Logistic's Name": "Shadowfax SND",
      "City": "KOLKATA",
      "state": "West Bengal",
      "SFX status": "Active"
    },
    {
      "Pincode": "700045",
      "Logistic's Name": "Shadowfax SND",
      "City": "KOLKATA",
      "state": "West Bengal",
      "SFX status": "Active"
    },
    {
      "Pincode": "700095",
      "Logistic's Name": "Shadowfax SND",
      "City": "KOLKATA",
      "state": "West Bengal",
      "SFX status": "Active"
    },
    {
      "Pincode": "700027",
      "Logistic's Name": "Shadowfax SND",
      "City": "KOLKATA",
      "state": "West Bengal",
      "SFX status": "Active"
    },
    {
      "Pincode": "700020",
      "Logistic's Name": "Shadowfax SND",
      "City": "KOLKATA",
      "state": "West Bengal",
      "SFX status": "Active"
    },
    {
      "Pincode": "700025",
      "Logistic's Name": "Shadowfax SND",
      "City": "KOLKATA",
      "state": "West Bengal",
      "SFX status": "Active"
    },
    {
      "Pincode": "700026",
      "Logistic's Name": "Shadowfax SND",
      "City": "KOLKATA",
      "state": "West Bengal",
      "SFX status": "Active"
    },
    {
      "Pincode": "700023",
      "Logistic's Name": "Shadowfax SND",
      "City": "KOLKATA",
      "state": "West Bengal",
      "SFX status": "Active"
    },
    {
      "Pincode": "700043",
      "Logistic's Name": "Shadowfax SND",
      "City": "KOLKATA",
      "state": "West Bengal",
      "SFX status": "Active"
    },
    {
      "Pincode": "700022",
      "Logistic's Name": "Shadowfax SND",
      "City": "KOLKATA",
      "state": "West Bengal",
      "SFX status": "Active"
    },
    {
      "Pincode": "600071",
      "Logistic's Name": "Shadowfax SND",
      "City": "CHENNAI",
      "state": "Tamil Nadu",
      "SFX status": "Active"
    },
    {
      "Pincode": "500071",
      "Logistic's Name": "Shadowfax SND",
      "City": "HYDERABAD",
      "state": "Telangana",
      "SFX status": "Active"
    },
    {
      "Pincode": "711202",
      "Logistic's Name": "Shadowfax SND",
      "City": "BALLY",
      "state": "West Bengal",
      "SFX status": "Active"
    },
    {
      "Pincode": "711203",
      "Logistic's Name": "Shadowfax SND",
      "City": "BALLY",
      "state": "West Bengal",
      "SFX status": "Active"
    },
    {
      "Pincode": "711108",
      "Logistic's Name": "Shadowfax SND",
      "City": "BALLY",
      "state": "West Bengal",
      "SFX status": "Active"
    },
    {
      "Pincode": "711204",
      "Logistic's Name": "Shadowfax SND",
      "City": "BALLY",
      "state": "West Bengal",
      "SFX status": "Active"
    },
    {
      "Pincode": "700058",
      "Logistic's Name": "Shadowfax SND",
      "City": "KOLKATA",
      "state": "West Bengal",
      "SFX status": "Active"
    },
    {
      "Pincode": "700109",
      "Logistic's Name": "Shadowfax SND",
      "City": "KOLKATA",
      "state": "West Bengal",
      "SFX status": "Active"
    },
    {
      "Pincode": "700057",
      "Logistic's Name": "Shadowfax SND",
      "City": "KOLKATA",
      "state": "West Bengal",
      "SFX status": "Active"
    },
    {
      "Pincode": "700083",
      "Logistic's Name": "Shadowfax SND",
      "City": "KOLKATA",
      "state": "West Bengal",
      "SFX status": "Active"
    },
    {
      "Pincode": "700056",
      "Logistic's Name": "Shadowfax SND",
      "City": "KOLKATA",
      "state": "West Bengal",
      "SFX status": "Active"
    },
    {
      "Pincode": "600054",
      "Logistic's Name": "Shadowfax SND",
      "City": "CHENNAI",
      "state": "Tamil Nadu",
      "SFX status": "Active"
    },
    {
      "Pincode": "700121",
      "Logistic's Name": "Shadowfax SND",
      "City": "BARRACKPORE",
      "state": "West Bengal",
      "SFX status": "Active"
    },
    {
      "Pincode": "700120",
      "Logistic's Name": "Shadowfax SND",
      "City": "BARRACKPORE",
      "state": "West Bengal",
      "SFX status": "Active"
    },
    {
      "Pincode": "600072",
      "Logistic's Name": "Shadowfax SND",
      "City": "CHENNAI",
      "state": "Tamil Nadu",
      "SFX status": "Active"
    },
    {
      "Pincode": "700132",
      "Logistic's Name": "Shadowfax SND",
      "City": "BARASAT",
      "state": "West Bengal",
      "SFX status": "Active"
    },
    {
      "Pincode": "700123",
      "Logistic's Name": "Shadowfax SND",
      "City": "BARRACKPORE",
      "state": "West Bengal",
      "SFX status": "Active"
    },
    {
      "Pincode": "700130",
      "Logistic's Name": "Shadowfax SND",
      "City": "BARASAT",
      "state": "West Bengal",
      "SFX status": "Active"
    },
    {
      "Pincode": "700111",
      "Logistic's Name": "Shadowfax SND",
      "City": "KOLKATA",
      "state": "West Bengal",
      "SFX status": "Active"
    },
    {
      "Pincode": "700114",
      "Logistic's Name": "Shadowfax SND",
      "City": "KOLKATA",
      "state": "West Bengal",
      "SFX status": "Active"
    },
    {
      "Pincode": "700112",
      "Logistic's Name": "Shadowfax SND",
      "City": "BARRACKPORE",
      "state": "West Bengal",
      "SFX status": "Active"
    },
    {
      "Pincode": "700115",
      "Logistic's Name": "Shadowfax SND",
      "City": "BARRACKPORE",
      "state": "West Bengal",
      "SFX status": "Active"
    },
    {
      "Pincode": "700113",
      "Logistic's Name": "Shadowfax SND",
      "City": "BARRACKPORE",
      "state": "West Bengal",
      "SFX status": "Active"
    },
    {
      "Pincode": "700117",
      "Logistic's Name": "Shadowfax SND",
      "City": "BARRACKPORE",
      "state": "West Bengal",
      "SFX status": "Active"
    },
    {
      "Pincode": "700134",
      "Logistic's Name": "Shadowfax SND",
      "City": "KOLKATA",
      "state": "West Bengal",
      "SFX status": "Active"
    },
    {
      "Pincode": "600053",
      "Logistic's Name": "Shadowfax SND",
      "City": "CHENNAI",
      "state": "Tamil Nadu",
      "SFX status": "Active"
    },
    {
      "Pincode": "110118",
      "Logistic's Name": "Shadowfax SND",
      "City": "DELHI",
      "state": "DELHI",
      "SFX status": "Active"
    },
    {
      "Pincode": "110050",
      "Logistic's Name": "Shadowfax SND",
      "City": "DELHI",
      "state": "DELHI",
      "SFX status": "Active"
    },
    {
      "Pincode": "700116",
      "Logistic's Name": "Shadowfax SND",
      "City": "BARRACKPORE",
      "state": "West Bengal",
      "SFX status": "Active"
    },
    {
      "Pincode": "700122",
      "Logistic's Name": "Shadowfax SND",
      "City": "BARRACKPORE",
      "state": "West Bengal",
      "SFX status": "Active"
    },
    {
      "Pincode": "600080",
      "Logistic's Name": "Shadowfax SND",
      "City": "CHENNAI",
      "state": "Tamil Nadu",
      "SFX status": "Active"
    },
    {
      "Pincode": "700049",
      "Logistic's Name": "Shadowfax SND",
      "City": "KOLKATA",
      "state": "West Bengal",
      "SFX status": "Active"
    },
    {
      "Pincode": "700110",
      "Logistic's Name": "Shadowfax SND",
      "City": "KOLKATA",
      "state": "West Bengal",
      "SFX status": "Active"
    },
    {
      "Pincode": "560014",
      "Logistic's Name": "Shadowfax SND",
      "City": "BENGALURU",
      "state": "Karnataka",
      "SFX status": "Active"
    },
    {
      "Pincode": "560110",
      "Logistic's Name": "Shadowfax SND",
      "City": "BENGALURU",
      "state": "Karnataka",
      "SFX status": "Active"
    },
    {
      "Pincode": "500043",
      "Logistic's Name": "Shadowfax SND",
      "City": "NARSAPUR",
      "state": "Telangana",
      "SFX status": "Active"
    },
    {
      "Pincode": "500088",
      "Logistic's Name": "Shadowfax SND",
      "City": "HYDERABAD",
      "state": "Telangana",
      "SFX status": "Active"
    },
    {
      "Pincode": "500098",
      "Logistic's Name": "Shadowfax SND",
      "City": "HYDERABAD",
      "state": "Telangana",
      "SFX status": "Active"
    },
    {
      "Pincode": "500077",
      "Logistic's Name": "Shadowfax SND",
      "City": "HYDERABAD",
      "state": "Telangana",
      "SFX status": "Active"
    },
    {
      "Pincode": "500002",
      "Logistic's Name": "Shadowfax SND",
      "City": "HYDERABAD",
      "state": "Telangana",
      "SFX status": "Active"
    },
    {
      "Pincode": "500016",
      "Logistic's Name": "Shadowfax SND",
      "City": "HYDERABAD",
      "state": "Telangana",
      "SFX status": "Active"
    },
    {
      "Pincode": "500085",
      "Logistic's Name": "Shadowfax SND",
      "City": "HYDERABAD",
      "state": "Telangana",
      "SFX status": "Active"
    },
    {
      "Pincode": "500090",
      "Logistic's Name": "Shadowfax SND",
      "City": "HYDERABAD",
      "state": "Telangana",
      "SFX status": "Active"
    },
    {
      "Pincode": "500051",
      "Logistic's Name": "Shadowfax SND",
      "City": "HYDERABAD",
      "state": "Telangana",
      "SFX status": "Active"
    },
    {
      "Pincode": "500040",
      "Logistic's Name": "Shadowfax SND",
      "City": "HYDERABAD",
      "state": "Telangana",
      "SFX status": "Active"
    },
    {
      "Pincode": "500017",
      "Logistic's Name": "Shadowfax SND",
      "City": "HYDERABAD",
      "state": "Telangana",
      "SFX status": "Active"
    },
    {
      "Pincode": "500076",
      "Logistic's Name": "Shadowfax SND",
      "City": "HYDERABAD",
      "state": "Telangana",
      "SFX status": "Active"
    },
    {
      "Pincode": "500047",
      "Logistic's Name": "Shadowfax SND",
      "City": "HYDERABAD",
      "state": "Telangana",
      "SFX status": "Active"
    },
    {
      "Pincode": "500044",
      "Logistic's Name": "Shadowfax SND",
      "City": "HYDERABAD",
      "state": "Telangana",
      "SFX status": "Active"
    },
    {
      "Pincode": "500024",
      "Logistic's Name": "Shadowfax SND",
      "City": "HYDERABAD",
      "state": "Telangana",
      "SFX status": "Active"
    },
    {
      "Pincode": "500013",
      "Logistic's Name": "Shadowfax SND",
      "City": "HYDERABAD",
      "state": "Telangana",
      "SFX status": "Active"
    },
    {
      "Pincode": "500072",
      "Logistic's Name": "Shadowfax SND",
      "City": "HYDERABAD",
      "state": "Telangana",
      "SFX status": "Active"
    },
    {
      "Pincode": "500035",
      "Logistic's Name": "Shadowfax SND",
      "City": "HYDERABAD",
      "state": "Telangana",
      "SFX status": "Active"
    },
    {
      "Pincode": "500068",
      "Logistic's Name": "Shadowfax SND",
      "City": "HYDERABAD",
      "state": "Telangana",
      "SFX status": "Active"
    },
    {
      "Pincode": "500060",
      "Logistic's Name": "Shadowfax SND",
      "City": "HYDERABAD",
      "state": "Telangana",
      "SFX status": "Active"
    },
    {
      "Pincode": "500084",
      "Logistic's Name": "Shadowfax SND",
      "City": "HYDERABAD",
      "state": "Telangana",
      "SFX status": "Active"
    },
    {
      "Pincode": "500081",
      "Logistic's Name": "Shadowfax SND",
      "City": "HYDERABAD",
      "state": "Telangana",
      "SFX status": "Active"
    },
    {
      "Pincode": "500067",
      "Logistic's Name": "Shadowfax SND",
      "City": "HYDERABAD",
      "state": "Telangana",
      "SFX status": "Active"
    },
    {
      "Pincode": "500095",
      "Logistic's Name": "Shadowfax SND",
      "City": "HYDERABAD",
      "state": "Telangana",
      "SFX status": "Active"
    },
    {
      "Pincode": "500027",
      "Logistic's Name": "Shadowfax SND",
      "City": "HYDERABAD",
      "state": "Telangana",
      "SFX status": "Active"
    },
    {
      "Pincode": "500080",
      "Logistic's Name": "Shadowfax SND",
      "City": "HYDERABAD",
      "state": "Telangana",
      "SFX status": "Active"
    },
    {
      "Pincode": "500029",
      "Logistic's Name": "Shadowfax SND",
      "City": "HYDERABAD",
      "state": "Telangana",
      "SFX status": "Active"
    },
    {
      "Pincode": "500020",
      "Logistic's Name": "Shadowfax SND",
      "City": "HYDERABAD",
      "state": "Telangana",
      "SFX status": "Active"
    },
    {
      "Pincode": "500009",
      "Logistic's Name": "Shadowfax SND",
      "City": "HYDERABAD",
      "state": "Telangana",
      "SFX status": "Active"
    },
    {
      "Pincode": "500026",
      "Logistic's Name": "Shadowfax SND",
      "City": "HYDERABAD",
      "state": "Telangana",
      "SFX status": "Active"
    },
    {
      "Pincode": "500061",
      "Logistic's Name": "Shadowfax SND",
      "City": "HYDERABAD",
      "state": "Telangana",
      "SFX status": "Active"
    },
    {
      "Pincode": "500003",
      "Logistic's Name": "Shadowfax SND",
      "City": "HYDERABAD",
      "state": "Telangana",
      "SFX status": "Active"
    },
    {
      "Pincode": "500011",
      "Logistic's Name": "Shadowfax SND",
      "City": "HYDERABAD",
      "state": "Telangana",
      "SFX status": "Active"
    },
    {
      "Pincode": "500042",
      "Logistic's Name": "Shadowfax SND",
      "City": "HYDERABAD",
      "state": "Telangana",
      "SFX status": "Active"
    },
    {
      "Pincode": "500054",
      "Logistic's Name": "Shadowfax SND",
      "City": "HYDERABAD",
      "state": "Telangana",
      "SFX status": "Active"
    },
    {
      "Pincode": "500037",
      "Logistic's Name": "Shadowfax SND",
      "City": "HYDERABAD",
      "state": "Telangana",
      "SFX status": "Active"
    },
    {
      "Pincode": "500012",
      "Logistic's Name": "Shadowfax SND",
      "City": "HYDERABAD",
      "state": "Telangana",
      "SFX status": "Active"
    },
    {
      "Pincode": "500087",
      "Logistic's Name": "Shadowfax SND",
      "City": "HYDERABAD",
      "state": "Telangana",
      "SFX status": "Active"
    },
    {
      "Pincode": "500094",
      "Logistic's Name": "Shadowfax SND",
      "City": "HYDERABAD",
      "state": "Telangana",
      "SFX status": "Active"
    },
    {
      "Pincode": "500083",
      "Logistic's Name": "Shadowfax SND",
      "City": "HYDERABAD",
      "state": "Telangana",
      "SFX status": "Active"
    },
    {
      "Pincode": "500062",
      "Logistic's Name": "Shadowfax SND",
      "City": "HYDERABAD",
      "state": "Telangana",
      "SFX status": "Active"
    },
    {
      "Pincode": "201318",
      "Logistic's Name": "Shadowfax SND",
      "City": "Delhi NCR-Gautam Buddha Nagar",
      "state": "Uttar Pradesh",
      "SFX status": "Active"
    },
    {
      "Pincode": "201303",
      "Logistic's Name": "Shadowfax SND",
      "City": "Delhi NCR-NOIDA",
      "state": "Uttar Pradesh",
      "SFX status": "Active"
    },
    {
      "Pincode": "122005",
      "Logistic's Name": "Shadowfax SND",
      "City": "Delhi NCR",
      "state": "HARYANA",
      "SFX status": "Active"
    },
    {
      "Pincode": "201019",
      "Logistic's Name": "Shadowfax SND",
      "City": "Delhi NCR-GHAZIABAD",
      "state": "Uttar Pradesh",
      "SFX status": "Active"
    },
    {
      "Pincode": "121013",
      "Logistic's Name": "Shadowfax SND",
      "City": "Delhi NCR",
      "state": "HARYANA",
      "SFX status": "Active"
    },
    {
      "Pincode": "121008",
      "Logistic's Name": "Shadowfax SND",
      "City": "Delhi NCR",
      "state": "HARYANA",
      "SFX status": "Active"
    },
    {
      "Pincode": "121002",
      "Logistic's Name": "Shadowfax SND",
      "City": "Delhi NCR",
      "state": "HARYANA",
      "SFX status": "Active"
    },
    {
      "Pincode": "201012",
      "Logistic's Name": "Shadowfax SND",
      "City": "Delhi NCR-GHAZIABAD",
      "state": "Uttar Pradesh",
      "SFX status": "Active"
    },
    {
      "Pincode": "201006",
      "Logistic's Name": "Shadowfax SND",
      "City": "Delhi NCR-GHAZIABAD",
      "state": "Uttar Pradesh",
      "SFX status": "Active"
    },
    {
      "Pincode": "122010",
      "Logistic's Name": "Shadowfax SND",
      "City": "Delhi NCR",
      "state": "HARYANA",
      "SFX status": "Active"
    },
    {
      "Pincode": "122008",
      "Logistic's Name": "Shadowfax SND",
      "City": "Delhi NCR",
      "state": "HARYANA",
      "SFX status": "Active"
    },
    {
      "Pincode": "110048",
      "Logistic's Name": "Shadowfax SND",
      "City": "DELHI",
      "state": "DELHI",
      "SFX status": "Active"
    },
    {
      "Pincode": "110028",
      "Logistic's Name": "Shadowfax SND",
      "City": "DELHI",
      "state": "DELHI",
      "SFX status": "Active"
    },
    {
      "Pincode": "110022",
      "Logistic's Name": "Shadowfax SND",
      "City": "DELHI",
      "state": "DELHI",
      "SFX status": "Active"
    },
    {
      "Pincode": "560090",
      "Logistic's Name": "Shadowfax SND",
      "City": "BENGALURU",
      "state": "Karnataka",
      "SFX status": "Active"
    },
    {
      "Pincode": "110029",
      "Logistic's Name": "Shadowfax SND",
      "City": "DELHI",
      "state": "DELHI",
      "SFX status": "Active"
    },
    {
      "Pincode": "201016",
      "Logistic's Name": "Shadowfax SND",
      "City": "Delhi NCR-GHAZIABAD",
      "state": "Uttar Pradesh",
      "SFX status": "Active"
    },
    {
      "Pincode": "110060",
      "Logistic's Name": "Shadowfax SND",
      "City": "DELHI",
      "state": "DELHI",
      "SFX status": "Active"
    },
    {
      "Pincode": "110065",
      "Logistic's Name": "Shadowfax SND",
      "City": "DELHI",
      "state": "DELHI",
      "SFX status": "Active"
    },
    {
      "Pincode": "110066",
      "Logistic's Name": "Shadowfax SND",
      "City": "DELHI",
      "state": "DELHI",
      "SFX status": "Active"
    },
    {
      "Pincode": "110076",
      "Logistic's Name": "Shadowfax SND",
      "City": "DELHI",
      "state": "DELHI",
      "SFX status": "Active"
    },
    {
      "Pincode": "110056",
      "Logistic's Name": "Shadowfax SND",
      "City": "DELHI",
      "state": "DELHI",
      "SFX status": "Active"
    },
    {
      "Pincode": "110020",
      "Logistic's Name": "Shadowfax SND",
      "City": "DELHI",
      "state": "DELHI",
      "SFX status": "Active"
    },
    {
      "Pincode": "560047",
      "Logistic's Name": "Shadowfax SND",
      "City": "BENGALURU",
      "state": "Karnataka",
      "SFX status": "Active"
    },
    {
      "Pincode": "110027",
      "Logistic's Name": "Shadowfax SND",
      "City": "DELHI",
      "state": "DELHI",
      "SFX status": "Active"
    },
    {
      "Pincode": "122017",
      "Logistic's Name": "Shadowfax SND",
      "City": "Delhi NCR",
      "state": "HARYANA",
      "SFX status": "Active"
    },
    {
      "Pincode": "110089",
      "Logistic's Name": "Shadowfax SND",
      "City": "DELHI",
      "state": "DELHI",
      "SFX status": "Active"
    },
    {
      "Pincode": "560107",
      "Logistic's Name": "Shadowfax SND",
      "City": "BENGALURU",
      "state": "Karnataka",
      "SFX status": "Active"
    },
    {
      "Pincode": "201014",
      "Logistic's Name": "Shadowfax SND",
      "City": "Delhi NCR-GHAZIABAD",
      "state": "Uttar Pradesh",
      "SFX status": "Active"
    },
    {
      "Pincode": "110051",
      "Logistic's Name": "Shadowfax SND",
      "City": "DELHI",
      "state": "DELHI",
      "SFX status": "Active"
    },
    {
      "Pincode": "110052",
      "Logistic's Name": "Shadowfax SND",
      "City": "DELHI",
      "state": "DELHI",
      "SFX status": "Active"
    },
    {
      "Pincode": "560015",
      "Logistic's Name": "Shadowfax SND",
      "City": "BENGALURU",
      "state": "Karnataka",
      "SFX status": "Active"
    },
    {
      "Pincode": "110032",
      "Logistic's Name": "Shadowfax SND",
      "City": "DELHI",
      "state": "DELHI",
      "SFX status": "Active"
    },
    {
      "Pincode": "110012",
      "Logistic's Name": "Shadowfax SND",
      "City": "DELHI",
      "state": "DELHI",
      "SFX status": "Active"
    },
    {
      "Pincode": "110096",
      "Logistic's Name": "Shadowfax SND",
      "City": "DELHI",
      "state": "DELHI",
      "SFX status": "Active"
    },
    {
      "Pincode": "110018",
      "Logistic's Name": "Shadowfax SND",
      "City": "DELHI",
      "state": "DELHI",
      "SFX status": "Active"
    },
    {
      "Pincode": "110091",
      "Logistic's Name": "Shadowfax SND",
      "City": "DELHI",
      "state": "DELHI",
      "SFX status": "Active"
    },
    {
      "Pincode": "110009",
      "Logistic's Name": "Shadowfax SND",
      "City": "DELHI",
      "state": "DELHI",
      "SFX status": "Active"
    },
    {
      "Pincode": "110084",
      "Logistic's Name": "Shadowfax SND",
      "City": "DELHI",
      "state": "DELHI",
      "SFX status": "Active"
    },
    {
      "Pincode": "110044",
      "Logistic's Name": "Shadowfax SND",
      "City": "DELHI",
      "state": "DELHI",
      "SFX status": "Active"
    },
    {
      "Pincode": "110085",
      "Logistic's Name": "Shadowfax SND",
      "City": "DELHI",
      "state": "DELHI",
      "SFX status": "Active"
    },
    {
      "Pincode": "110092",
      "Logistic's Name": "Shadowfax SND",
      "City": "DELHI",
      "state": "DELHI",
      "SFX status": "Active"
    },
    {
      "Pincode": "122001",
      "Logistic's Name": "Shadowfax SND",
      "City": "Delhi NCR",
      "state": "HARYANA",
      "SFX status": "Active"
    },
    {
      "Pincode": "560108",
      "Logistic's Name": "Shadowfax SND",
      "City": "BENGALURU",
      "state": "Karnataka",
      "SFX status": "Active"
    },
    {
      "Pincode": "560109",
      "Logistic's Name": "Shadowfax SND",
      "City": "BENGALURU",
      "state": "Karnataka",
      "SFX status": "Active"
    },
    {
      "Pincode": "560069",
      "Logistic's Name": "Shadowfax SND",
      "City": "BENGALURU",
      "state": "Karnataka",
      "SFX status": "Active"
    },
    {
      "Pincode": "560028",
      "Logistic's Name": "Shadowfax SND",
      "City": "BENGALURU",
      "state": "Karnataka",
      "SFX status": "Active"
    },
    {
      "Pincode": "560104",
      "Logistic's Name": "Shadowfax SND",
      "City": "BENGALURU",
      "state": "Karnataka",
      "SFX status": "Active"
    },
    {
      "Pincode": "560012",
      "Logistic's Name": "Shadowfax SND",
      "City": "BENGALURU",
      "state": "Karnataka",
      "SFX status": "Active"
    },
    {
      "Pincode": "560059",
      "Logistic's Name": "Shadowfax SND",
      "City": "BENGALURU",
      "state": "Karnataka",
      "SFX status": "Active"
    },
    {
      "Pincode": "560050",
      "Logistic's Name": "Shadowfax SND",
      "City": "BENGALURU",
      "state": "Karnataka",
      "SFX status": "Active"
    },
    {
      "Pincode": "560096",
      "Logistic's Name": "Shadowfax SND",
      "City": "BENGALURU",
      "state": "Karnataka",
      "SFX status": "Active"
    },
    {
      "Pincode": "560021",
      "Logistic's Name": "Shadowfax SND",
      "City": "BENGALURU",
      "state": "Karnataka",
      "SFX status": "Active"
    },
    {
      "Pincode": "560075",
      "Logistic's Name": "Shadowfax SND",
      "City": "BENGALURU",
      "state": "Karnataka",
      "SFX status": "Active"
    },
    {
      "Pincode": "560093",
      "Logistic's Name": "Shadowfax SND",
      "City": "BENGALURU",
      "state": "Karnataka",
      "SFX status": "Active"
    },
    {
      "Pincode": "560054",
      "Logistic's Name": "Shadowfax SND",
      "City": "BENGALURU",
      "state": "Karnataka",
      "SFX status": "Active"
    },
    {
      "Pincode": "560072",
      "Logistic's Name": "Shadowfax SND",
      "City": "BENGALURU",
      "state": "Karnataka",
      "SFX status": "Active"
    },
    {
      "Pincode": "560056",
      "Logistic's Name": "Shadowfax SND",
      "City": "BENGALURU",
      "state": "Karnataka",
      "SFX status": "Active"
    },
    {
      "Pincode": "560040",
      "Logistic's Name": "Shadowfax SND",
      "City": "BENGALURU",
      "state": "Karnataka",
      "SFX status": "Active"
    },
    {
      "Pincode": "560079",
      "Logistic's Name": "Shadowfax SND",
      "City": "BENGALURU",
      "state": "Karnataka",
      "SFX status": "Active"
    },
    {
      "Pincode": "560085",
      "Logistic's Name": "Shadowfax SND",
      "City": "BENGALURU",
      "state": "Karnataka",
      "SFX status": "Active"
    },
    {
      "Pincode": "560062",
      "Logistic's Name": "Shadowfax SND",
      "City": "BENGALURU",
      "state": "Karnataka",
      "SFX status": "Active"
    },
    {
      "Pincode": "560029",
      "Logistic's Name": "Shadowfax SND",
      "City": "BENGALURU",
      "state": "Karnataka",
      "SFX status": "Active"
    },
    {
      "Pincode": "560058",
      "Logistic's Name": "Shadowfax SND",
      "City": "BENGALURU",
      "state": "Karnataka",
      "SFX status": "Active"
    },
    {
      "Pincode": "560032",
      "Logistic's Name": "Shadowfax SND",
      "City": "BENGALURU",
      "state": "Karnataka",
      "SFX status": "Active"
    },
    {
      "Pincode": "560078",
      "Logistic's Name": "Shadowfax SND",
      "City": "BENGALURU",
      "state": "Karnataka",
      "SFX status": "Active"
    },
    {
      "Pincode": "560066",
      "Logistic's Name": "Shadowfax SND",
      "City": "BENGALURU",
      "state": "Karnataka",
      "SFX status": "Active"
    },
    {
      "Pincode": "560076",
      "Logistic's Name": "Shadowfax SND",
      "City": "BENGALURU",
      "state": "Karnataka",
      "SFX status": "Active"
    },
    {
      "Pincode": "400604",
      "Logistic's Name": "Shadowfax SND",
      "City": "MUMBAI",
      "state": "Maharashtra",
      "SFX status": "Active"
    },
    {
      "Pincode": "400602",
      "Logistic's Name": "Shadowfax SND",
      "City": "MUMBAI",
      "state": "Maharashtra",
      "SFX status": "Active"
    },
    {
      "Pincode": "401207",
      "Logistic's Name": "Shadowfax SND",
      "City": "MUMBAI",
      "state": "Maharashtra",
      "SFX status": "Active"
    },
    {
      "Pincode": "401201",
      "Logistic's Name": "Shadowfax SND",
      "City": "MUMBAI",
      "state": "Maharashtra",
      "SFX status": "Active"
    },
    {
      "Pincode": "421005",
      "Logistic's Name": "Shadowfax SND",
      "City": "MUMBAI",
      "state": "Maharashtra",
      "SFX status": "Active"
    },
    {
      "Pincode": "421605",
      "Logistic's Name": "Shadowfax SND",
      "City": "MUMBAI",
      "state": "Maharashtra",
      "SFX status": "Active"
    },
    {
      "Pincode": "400601",
      "Logistic's Name": "Shadowfax SND",
      "City": "MUMBAI",
      "state": "Maharashtra",
      "SFX status": "Active"
    },
    {
      "Pincode": "400036",
      "Logistic's Name": "Shadowfax SND",
      "City": "MUMBAI",
      "state": "Maharashtra",
      "SFX status": "Active"
    },
    {
      "Pincode": "400035",
      "Logistic's Name": "Shadowfax SND",
      "City": "MUMBAI",
      "state": "Maharashtra",
      "SFX status": "Active"
    },
    {
      "Pincode": "400034",
      "Logistic's Name": "Shadowfax SND",
      "City": "MUMBAI",
      "state": "Maharashtra",
      "SFX status": "Active"
    },
    {
      "Pincode": "400026",
      "Logistic's Name": "Shadowfax SND",
      "City": "MUMBAI",
      "state": "Maharashtra",
      "SFX status": "Active"
    },
    {
      "Pincode": "400007",
      "Logistic's Name": "Shadowfax SND",
      "City": "MUMBAI",
      "state": "Maharashtra",
      "SFX status": "Active"
    },
    {
      "Pincode": "400006",
      "Logistic's Name": "Shadowfax SND",
      "City": "MUMBAI",
      "state": "Maharashtra",
      "SFX status": "Active"
    },
    {
      "Pincode": "400022",
      "Logistic's Name": "Shadowfax SND",
      "City": "MUMBAI",
      "state": "Maharashtra",
      "SFX status": "Active"
    },
    {
      "Pincode": "410218",
      "Logistic's Name": "Shadowfax SND",
      "City": "KAMOTHE",
      "state": "Maharashtra",
      "SFX status": "Active"
    },
    {
      "Pincode": "400104",
      "Logistic's Name": "Shadowfax SND",
      "City": "MUMBAI",
      "state": "Maharashtra",
      "SFX status": "Active"
    },
    {
      "Pincode": "401304",
      "Logistic's Name": "Shadowfax SND",
      "City": "MUMBAI",
      "state": "Maharashtra",
      "SFX status": "Active"
    },
    {
      "Pincode": "400096",
      "Logistic's Name": "Shadowfax SND",
      "City": "MUMBAI",
      "state": "Maharashtra",
      "SFX status": "Active"
    },
    {
      "Pincode": "400069",
      "Logistic's Name": "Shadowfax SND",
      "City": "MUMBAI",
      "state": "Maharashtra",
      "SFX status": "Active"
    },
    {
      "Pincode": "400057",
      "Logistic's Name": "Shadowfax SND",
      "City": "MUMBAI",
      "state": "Maharashtra",
      "SFX status": "Active"
    },
    {
      "Pincode": "400082",
      "Logistic's Name": "Shadowfax SND",
      "City": "MUMBAI",
      "state": "Maharashtra",
      "SFX status": "Active"
    },
    {
      "Pincode": "400028",
      "Logistic's Name": "Shadowfax SND",
      "City": "MUMBAI",
      "state": "Maharashtra",
      "SFX status": "Active"
    },
    {
      "Pincode": "400025",
      "Logistic's Name": "Shadowfax SND",
      "City": "MUMBAI",
      "state": "Maharashtra",
      "SFX status": "Active"
    },
    {
      "Pincode": "400018",
      "Logistic's Name": "Shadowfax SND",
      "City": "MUMBAI",
      "state": "Maharashtra",
      "SFX status": "Active"
    },
    {
      "Pincode": "400086",
      "Logistic's Name": "Shadowfax SND",
      "City": "MUMBAI",
      "state": "Maharashtra",
      "SFX status": "Active"
    },
    {
      "Pincode": "400710",
      "Logistic's Name": "Shadowfax SND",
      "City": "MUMBAI",
      "state": "Maharashtra",
      "SFX status": "Active"
    },
    {
      "Pincode": "410210",
      "Logistic's Name": "Shadowfax SND",
      "City": "KAMOTHE",
      "state": "Maharashtra",
      "SFX status": "Active"
    },
    {
      "Pincode": "400101",
      "Logistic's Name": "Shadowfax SND",
      "City": "MUMBAI",
      "state": "Maharashtra",
      "SFX status": "Active"
    },
    {
      "Pincode": "400066",
      "Logistic's Name": "Shadowfax SND",
      "City": "MUMBAI",
      "state": "Maharashtra",
      "SFX status": "Active"
    },
    {
      "Pincode": "400615",
      "Logistic's Name": "Shadowfax SND",
      "City": "MUMBAI",
      "state": "Maharashtra",
      "SFX status": "Active"
    },
    {
      "Pincode": "400607",
      "Logistic's Name": "Shadowfax SND",
      "City": "MUMBAI",
      "state": "Maharashtra",
      "SFX status": "Active"
    },
    {
      "Pincode": "400019",
      "Logistic's Name": "Shadowfax SND",
      "City": "MUMBAI",
      "state": "Maharashtra",
      "SFX status": "Active"
    },
    {
      "Pincode": "400074",
      "Logistic's Name": "Shadowfax SND",
      "City": "MUMBAI",
      "state": "Maharashtra",
      "SFX status": "Active"
    },
    {
      "Pincode": "400027",
      "Logistic's Name": "Shadowfax SND",
      "City": "MUMBAI",
      "state": "Maharashtra",
      "SFX status": "Active"
    },
    {
      "Pincode": "400010",
      "Logistic's Name": "Shadowfax SND",
      "City": "MUMBAI",
      "state": "Maharashtra",
      "SFX status": "Active"
    },
    {
      "Pincode": "401106",
      "Logistic's Name": "Shadowfax SND",
      "City": "MUMBAI",
      "state": "Maharashtra",
      "SFX status": "Active"
    },
    {
      "Pincode": "400706",
      "Logistic's Name": "Shadowfax SND",
      "City": "MUMBAI",
      "state": "Maharashtra",
      "SFX status": "Active"
    },
    {
      "Pincode": "400614",
      "Logistic's Name": "Shadowfax SND",
      "City": "MUMBAI",
      "state": "Maharashtra",
      "SFX status": "Active"
    },
    {
      "Pincode": "421503",
      "Logistic's Name": "Shadowfax SND",
      "City": "MUMBAI",
      "state": "Maharashtra",
      "SFX status": "Active"
    },
    {
      "Pincode": "421506",
      "Logistic's Name": "Shadowfax SND",
      "City": "MUMBAI",
      "state": "Maharashtra",
      "SFX status": "Active"
    },
    {
      "Pincode": "421502",
      "Logistic's Name": "Shadowfax SND",
      "City": "MUMBAI",
      "state": "Maharashtra",
      "SFX status": "Active"
    },
    {
      "Pincode": "400062",
      "Logistic's Name": "Shadowfax SND",
      "City": "MUMBAI",
      "state": "Maharashtra",
      "SFX status": "Active"
    },
    {
      "Pincode": "400090",
      "Logistic's Name": "Shadowfax SND",
      "City": "MUMBAI",
      "state": "Maharashtra",
      "SFX status": "Active"
    },
    {
      "Pincode": "421501",
      "Logistic's Name": "Shadowfax SND",
      "City": "MUMBAI",
      "state": "Maharashtra",
      "SFX status": "Active"
    },
    {
      "Pincode": "421102",
      "Logistic's Name": "Shadowfax SND",
      "City": "MUMBAI",
      "state": "Maharashtra",
      "SFX status": "Active"
    },
    {
      "Pincode": "400608",
      "Logistic's Name": "Shadowfax SND",
      "City": "MUMBAI",
      "state": "Maharashtra",
      "SFX status": "Active"
    },
    {
      "Pincode": "400004",
      "Logistic's Name": "Shadowfax SND",
      "City": "MUMBAI",
      "state": "Maharashtra",
      "SFX status": "Active"
    },
    {
      "Pincode": "400099",
      "Logistic's Name": "Shadowfax SND",
      "City": "MUMBAI",
      "state": "Maharashtra",
      "SFX status": "Active"
    },
    {
      "Pincode": "400093",
      "Logistic's Name": "Shadowfax SND",
      "City": "MUMBAI",
      "state": "Maharashtra",
      "SFX status": "Active"
    },
    {
      "Pincode": "401107",
      "Logistic's Name": "Shadowfax SND",
      "City": "MUMBAI",
      "state": "Maharashtra",
      "SFX status": "Active"
    },
    {
      "Pincode": "400024",
      "Logistic's Name": "Shadowfax SND",
      "City": "MUMBAI",
      "state": "Maharashtra",
      "SFX status": "Active"
    },
    {
      "Pincode": "401301",
      "Logistic's Name": "Shadowfax SND",
      "City": "MUMBAI",
      "state": "Maharashtra",
      "SFX status": "Active"
    },
    {
      "Pincode": "401209",
      "Logistic's Name": "Shadowfax SND",
      "City": "MUMBAI",
      "state": "Maharashtra",
      "SFX status": "Active"
    },
    {
      "Pincode": "401202",
      "Logistic's Name": "Shadowfax SND",
      "City": "MUMBAI",
      "state": "Maharashtra",
      "SFX status": "Active"
    },
    {
      "Pincode": "400701",
      "Logistic's Name": "Shadowfax SND",
      "City": "MUMBAI",
      "state": "Maharashtra",
      "SFX status": "Active"
    },
    {
      "Pincode": "400603",
      "Logistic's Name": "Shadowfax SND",
      "City": "MUMBAI",
      "state": "Maharashtra",
      "SFX status": "Active"
    },
    {
      "Pincode": "400088",
      "Logistic's Name": "Shadowfax SND",
      "City": "MUMBAI",
      "state": "Maharashtra",
      "SFX status": "Active"
    },
    {
      "Pincode": "400078",
      "Logistic's Name": "Shadowfax SND",
      "City": "MUMBAI",
      "state": "Maharashtra",
      "SFX status": "Active"
    },
    {
      "Pincode": "400071",
      "Logistic's Name": "Shadowfax SND",
      "City": "MUMBAI",
      "state": "Maharashtra",
      "SFX status": "Active"
    },
    {
      "Pincode": "400017",
      "Logistic's Name": "Shadowfax SND",
      "City": "MUMBAI",
      "state": "Maharashtra",
      "SFX status": "Active"
    },
    {
      "Pincode": "400016",
      "Logistic's Name": "Shadowfax SND",
      "City": "MUMBAI",
      "state": "Maharashtra",
      "SFX status": "Active"
    },
    {
      "Pincode": "400013",
      "Logistic's Name": "Shadowfax SND",
      "City": "MUMBAI",
      "state": "Maharashtra",
      "SFX status": "Active"
    },
    {
      "Pincode": "421304",
      "Logistic's Name": "Shadowfax SND",
      "City": "KUDUS",
      "state": "Maharashtra",
      "SFX status": "Active"
    },
    {
      "Pincode": "421505",
      "Logistic's Name": "Shadowfax SND",
      "City": "MUMBAI",
      "state": "Maharashtra",
      "SFX status": "Active"
    },
    {
      "Pincode": "421306",
      "Logistic's Name": "Shadowfax SND",
      "City": "MUMBAI",
      "state": "Maharashtra",
      "SFX status": "Active"
    },
    {
      "Pincode": "421301",
      "Logistic's Name": "Shadowfax SND",
      "City": "MUMBAI",
      "state": "Maharashtra",
      "SFX status": "Active"
    },
    {
      "Pincode": "421204",
      "Logistic's Name": "Shadowfax SND",
      "City": "MUMBAI",
      "state": "Maharashtra",
      "SFX status": "Active"
    },
    {
      "Pincode": "421103",
      "Logistic's Name": "Shadowfax SND",
      "City": "MUMBAI",
      "state": "Maharashtra",
      "SFX status": "Active"
    },
    {
      "Pincode": "400610",
      "Logistic's Name": "Shadowfax SND",
      "City": "MUMBAI",
      "state": "Maharashtra",
      "SFX status": "Active"
    },
    {
      "Pincode": "410209",
      "Logistic's Name": "Shadowfax SND",
      "City": "KAMOTHE",
      "state": "Maharashtra",
      "SFX status": "Active"
    },
    {
      "Pincode": "401104",
      "Logistic's Name": "Shadowfax SND",
      "City": "MUMBAI",
      "state": "Maharashtra",
      "SFX status": "Active"
    },
    {
      "Pincode": "400054",
      "Logistic's Name": "Shadowfax SND",
      "City": "MUMBAI",
      "state": "Maharashtra",
      "SFX status": "Active"
    },
    {
      "Pincode": "400052",
      "Logistic's Name": "Shadowfax SND",
      "City": "MUMBAI",
      "state": "Maharashtra",
      "SFX status": "Active"
    },
    {
      "Pincode": "401305",
      "Logistic's Name": "Shadowfax SND",
      "City": "MUMBAI",
      "state": "Maharashtra",
      "SFX status": "Active"
    },
    {
      "Pincode": "401303",
      "Logistic's Name": "Shadowfax SND",
      "City": "MUMBAI",
      "state": "Maharashtra",
      "SFX status": "Active"
    },
    {
      "Pincode": "401302",
      "Logistic's Name": "Shadowfax SND",
      "City": "MUMBAI",
      "state": "Maharashtra",
      "SFX status": "Active"
    },
    {
      "Pincode": "401210",
      "Logistic's Name": "Shadowfax SND",
      "City": "MUMBAI",
      "state": "Maharashtra",
      "SFX status": "Active"
    },
    {
      "Pincode": "401203",
      "Logistic's Name": "Shadowfax SND",
      "City": "MUMBAI",
      "state": "Maharashtra",
      "SFX status": "Active"
    },
    {
      "Pincode": "401105",
      "Logistic's Name": "Shadowfax SND",
      "City": "MUMBAI",
      "state": "Maharashtra",
      "SFX status": "Active"
    },
    {
      "Pincode": "401101",
      "Logistic's Name": "Shadowfax SND",
      "City": "MUMBAI",
      "state": "Maharashtra",
      "SFX status": "Active"
    },
    {
      "Pincode": "400709",
      "Logistic's Name": "Shadowfax SND",
      "City": "MUMBAI",
      "state": "Maharashtra",
      "SFX status": "Active"
    },
    {
      "Pincode": "400708",
      "Logistic's Name": "Shadowfax SND",
      "City": "MUMBAI",
      "state": "Maharashtra",
      "SFX status": "Active"
    },
    {
      "Pincode": "400606",
      "Logistic's Name": "Shadowfax SND",
      "City": "MUMBAI",
      "state": "Maharashtra",
      "SFX status": "Active"
    },
    {
      "Pincode": "400605",
      "Logistic's Name": "Shadowfax SND",
      "City": "MUMBAI",
      "state": "Maharashtra",
      "SFX status": "Active"
    },
    {
      "Pincode": "400103",
      "Logistic's Name": "Shadowfax SND",
      "City": "MUMBAI",
      "state": "Maharashtra",
      "SFX status": "Active"
    },
    {
      "Pincode": "400094",
      "Logistic's Name": "Shadowfax SND",
      "City": "MUMBAI",
      "state": "Maharashtra",
      "SFX status": "Active"
    },
    {
      "Pincode": "400092",
      "Logistic's Name": "Shadowfax SND",
      "City": "MUMBAI",
      "state": "Maharashtra",
      "SFX status": "Active"
    },
    {
      "Pincode": "400091",
      "Logistic's Name": "Shadowfax SND",
      "City": "MUMBAI",
      "state": "Maharashtra",
      "SFX status": "Active"
    },
    {
      "Pincode": "400089",
      "Logistic's Name": "Shadowfax SND",
      "City": "MUMBAI",
      "state": "Maharashtra",
      "SFX status": "Active"
    },
    {
      "Pincode": "400068",
      "Logistic's Name": "Shadowfax SND",
      "City": "MUMBAI",
      "state": "Maharashtra",
      "SFX status": "Active"
    },
    {
      "Pincode": "400043",
      "Logistic's Name": "Shadowfax SND",
      "City": "MUMBAI",
      "state": "Maharashtra",
      "SFX status": "Active"
    },
    {
      "Pincode": "400042",
      "Logistic's Name": "Shadowfax SND",
      "City": "MUMBAI",
      "state": "Maharashtra",
      "SFX status": "Active"
    },
    {
      "Pincode": "400030",
      "Logistic's Name": "Shadowfax SND",
      "City": "MUMBAI",
      "state": "Maharashtra",
      "SFX status": "Active"
    },
    {
      "Pincode": "400067",
      "Logistic's Name": "Shadowfax SND",
      "City": "MUMBAI",
      "state": "Maharashtra",
      "SFX status": "Active"
    }
  ]